{"type":"FeatureCollection","features":[{"type":"Feature","id":0,"geometry":{"type":"Polygon","coordinates":[[[108.09531968900006,34.343726063000076],[108.09532415100006,34.343428631000052],[108.09540743200006,34.343285863000062],[108.09574799200004,34.342905149000046],[108.09664029000004,34.34187008400005],[108.09838919400005,34.340085488000057],[108.10049501700007,34.337587054000039],[108.10188700100008,34.336052302000041],[108.10310052700004,34.334303398000031],[108.10349313800003,34.333304024000029],[108.10367159700007,34.331840656000054],[108.10374298100004,34.330555747000062],[108.10370728900006,34.32862838300008],[108.10363590500003,34.327878853000072],[108.10317191000007,34.32673671200007],[108.10302914300007,34.325487495000061],[108.10360021300005,34.323024753000027],[108.10409990000005,34.321882611000035],[108.10431405200006,34.320811854000056],[108.10417128400007,34.31959832900003],[108.10431405200006,34.318706031000033],[108.10459958700005,34.317956501000026],[108.10506358200007,34.316992819000063],[108.10534911700006,34.317135587000053],[108.10806170300003,34.318634647000067],[108.10963214700007,34.319348485000035],[108.11123828300003,34.320633394000026],[108.11205919700006,34.321739844000035],[108.11255888400007,34.322417990000076],[108.11373671700005,34.322953369000061],[108.11480747500008,34.323595823000062],[108.11548562100006,34.324523813000042],[108.11634222700008,34.325701646000027],[108.11766282800005,34.327307783000037],[108.11869789300005,34.32862838300008],[108.11894773700004,34.329484989000036],[108.11894773700004,34.33098405000004],[108.11851943400006,34.331733580000048],[108.11798405500008,34.332554494000078],[108.11759144400008,34.33383940300007],[108.11716314100005,34.334196322000025],[108.11666345400005,34.335160004000045],[108.11594961600008,34.33637352900007],[108.11541423700004,34.337729822000028],[108.11505731800008,34.33905042300006],[108.11502162600004,34.340656559000024],[108.11498593400006,34.343226377000065],[108.11448624700006,34.344939589000035],[108.11423640400005,34.34547496700003],[108.11263026800003,34.34629588100006],[108.11102413200007,34.346617109000078],[108.10984629800004,34.346652801000062],[108.10873984900007,34.347009720000074],[108.10809739500007,34.347402331000069],[108.10734786400008,34.34708110300005],[108.10624141500006,34.346617109000078],[108.10563465200005,34.346581417000039],[108.10463527900004,34.346795568000061],[108.10388574900009,34.346474341000032],[108.10367159700007,34.345689119000042],[108.10317191000007,34.345082356000034],[108.10224392100008,34.344118675000061],[108.10149439000008,34.343583296000077],[108.09999533000007,34.343547604000037],[108.09888888100005,34.342940841000029],[108.09785381500006,34.342976533000069],[108.09685444100006,34.34361898800006],[108.09599783500005,34.343833139000026],[108.09531968900006,34.343726063000076]]]},"properties":{"FID":0,"OBJECTID":1,"SHAPE_Leng":0.087919555332899996,"SHAPE_Area":0.00037544783664199998,"Area":3832521.95609}}]}