{"type":"FeatureCollection","features":[{"type":"Feature","id":0,"geometry":{"type":"LineString","coordinates":[[108.10845936307894,34.319358547935657],[108.10848834476417,34.319094086457859],[108.10851071952794,34.318828984248768],[108.10852647344147,34.318563406340182],[108.10853559669764,34.318297518060042],[108.10853808361698,34.318031484929492],[108.10853393265135,34.317765472559849],[108.10852314638484,34.317499646549514],[108.10850573153211,34.317234172380857],[108.10848169893426,34.316969215317243],[108.10845106355212,34.316704940300113],[108.10841384445688,34.316441511846321],[108.1083700648182,34.316179093945713],[108.10831975188987,34.315917849959071],[108.10826293699273,34.315657942516346]]},"properties":{"FID":0,"OBJECTID":1,"道路类":"次干道","length":412,"Shape_Leng":412.343753709}},{"type":"Feature","id":1,"geometry":{"type":"LineString","coordinates":[[108.10834502889182,34.320086112169676],[108.10838867493354,34.319844482104713],[108.10842679295315,34.319601918542261],[108.10845936307894,34.319358547935657]]},"properties":{"FID":1,"OBJECTID":2,"道路类":"次干道","length":81,"Shape_Leng":81.401720783200005}},{"type":"Feature","id":2,"geometry":{"type":"LineString","coordinates":[[108.10807942025151,34.321166026594263],[108.10815611402438,34.320898672083189],[108.10822597617347,34.320629451635391],[108.10828896140708,34.320358539786746],[108.10834502889182,34.320086112169676]]},"properties":{"FID":2,"OBJECTID":3,"道路类":"次干道","length":122,"Shape_Leng":122.299631589}},{"type":"Feature","id":3,"geometry":{"type":"LineString","coordinates":[[108.10784630008473,34.321858476668964],[108.10784593211062,34.321857062565634]]},"properties":{"FID":3,"OBJECTID":4,"道路类":"次干道","length":0,"Shape_Leng":0.160478347188}},{"type":"Feature","id":4,"geometry":{"type":"LineString","coordinates":[[108.10784630008473,34.321858476668964],[108.10792903951719,34.321629374699889],[108.1080067585834,34.321398521342388],[108.10807942025151,34.321166026594263]]},"properties":{"FID":4,"OBJECTID":5,"道路类":"次干道","length":80,"Shape_Leng":79.762988813800007}},{"type":"Feature","id":5,"geometry":{"type":"LineString","coordinates":[[108.10784537426781,34.321860961070755],[108.10784630008473,34.321858476668964]]},"properties":{"FID":5,"OBJECTID":6,"道路类":"次干道","length":0,"Shape_Leng":0.28846230184499999}},{"type":"Feature","id":6,"geometry":{"type":"LineString","coordinates":[[108.10799494343421,34.322584424663333],[108.10796508643556,34.322401509954588],[108.1079303430251,34.322219460163389],[108.10789073811051,34.322038405801983],[108.10784630008473,34.321858476668964]]},"properties":{"FID":6,"OBJECTID":7,"道路类":"次干道","length":82,"Shape_Leng":81.709548776600002}},{"type":"Feature","id":7,"geometry":{"type":"LineString","coordinates":[[108.10806688272585,34.323790392389618],[108.10806981613989,34.323588803380559],[108.10806677141539,34.323387216021963],[108.10805775122941,34.323185807557053],[108.10804276351283,34.322984755071758],[108.1080218214434,34.322784235339007],[108.10799494343421,34.322584424663333]]},"properties":{"FID":7,"OBJECTID":8,"道路类":"次干道","length":134,"Shape_Leng":134.06153632799999}},{"type":"Feature","id":8,"geometry":{"type":"LineString","coordinates":[[108.1080475118722,34.324140910585619],[108.10805945951898,34.323965776505759],[108.10806688272585,34.323790392389618]]},"properties":{"FID":8,"OBJECTID":9,"道路类":"次干道","length":39,"Shape_Leng":38.926247291000003}},{"type":"Feature","id":9,"geometry":{"type":"LineString","coordinates":[[108.10801763831887,34.325880685280588],[108.10800717396404,34.325590676949346],[108.10800288713138,34.325300511551724],[108.10800477976473,34.325010320661363],[108.10801285100588,34.324720235863452],[108.10802709719498,34.324430388695092],[108.1080475118722,34.324140910585619]]},"properties":{"FID":9,"OBJECTID":10,"道路类":"次干道","length":193,"Shape_Leng":193.10044535899999}},{"type":"Feature","id":10,"geometry":{"type":"LineString","coordinates":[[108.09815370682372,34.326578762000921],[108.10314228774368,34.326446070274244],[108.10323764157125,34.326458579278402],[108.10333361170237,34.326464789073178],[108.10342978245723,34.326464672761823],[108.10352573728704,34.326458230848111],[108.10362106057829,34.32644549123421]]},"properties":{"FID":10,"OBJECTID":11,"道路类":"次干道","length":504,"Shape_Leng":503.68570971499997}},{"type":"Feature","id":11,"geometry":{"type":"LineString","coordinates":[[108.10807097619772,34.326606313755924],[108.10804890148354,34.326364766123199],[108.10803112032079,34.326122864527228],[108.10801763831887,34.325880685280588]]},"properties":{"FID":11,"OBJECTID":12,"道路类":"次干道","length":81,"Shape_Leng":80.648949360900005}},{"type":"Feature","id":12,"geometry":{"type":"LineString","coordinates":[[108.10952259389207,34.326575718799525],[108.10931528417625,34.326561733301126],[108.10910765232252,34.326553864009213],[108.10889987873649,34.326552117761196],[108.10869214394688,34.326556496074339],[108.10848462844875,34.326566995144447],[108.10827751254661,34.326583605849173],[108.10807097619772,34.326606313755924]]},"properties":{"FID":12,"OBJECTID":13,"道路类":"次干道","length":134,"Shape_Leng":133.980075623}},{"type":"Feature","id":13,"geometry":{"type":"LineString","coordinates":[[108.10722461457424,34.326783447189001],[108.10730094760281,34.326739048134201],[108.10738024669473,34.326700193773561],[108.10746210975002,34.326667081124953],[108.10754612166768,34.326639878091861],[108.10763185645054,34.326618722612054],[108.10771887936534,34.326603721958094],[108.1078067491471,34.326594952193432],[108.10789502023668,34.32659245778671],[108.10798324504,34.326596251386242],[108.10807097619772,34.326606313755924]]},"properties":{"FID":13,"OBJECTID":14,"道路类":"次干道","length":83,"Shape_Leng":82.699211210399994}},{"type":"Feature","id":14,"geometry":{"type":"LineString","coordinates":[[108.11262171516381,34.327455104287473],[108.11230825160355,34.327385098049817],[108.11199618770677,34.327309095410101],[108.11168563817053,34.327227124302595],[108.11137671713533,34.327139214855265],[108.11106953814308,34.327045399378662],[108.11076421409548,34.326945712354046],[108.1104608572124,34.326840190420754],[108.1101595789907,34.326728872362693],[108.10986049016326,34.326611799094088],[108.1096917608743,34.32659170942194],[108.10952259389207,34.326575718799525]]},"properties":{"FID":14,"OBJECTID":15,"道路类":"次干道","length":303,"Shape_Leng":302.595500292}},{"type":"Feature","id":15,"geometry":{"type":"LineString","coordinates":[[108.10672151018525,34.32756288385994],[108.10675735424063,34.32745982085455],[108.1067986436334,34.327358816075311],[108.10684526084944,34.327260156992843],[108.10689707321109,34.327164124401669],[108.10695393325467,34.327070991621042],[108.10701567915032,34.326981023717011],[108.10708213516247,34.326894476748059],[108.10712742541173,34.326854696421371],[108.1071749732362,34.326817643952388],[108.10722461457424,34.326783447189001]]},"properties":{"FID":15,"OBJECTID":16,"道路类":"次干道","length":100,"Shape_Leng":99.625873151999997}},{"type":"Feature","id":16,"geometry":{"type":"LineString","coordinates":[[108.10362106057829,34.32644549123421],[108.10371035751218,34.326429677536957],[108.10379816946265,34.326407026338728],[108.10388397369546,34.326377672479445],[108.10396725942815,34.326341790699175],[108.10404753087053,34.326299594597927],[108.10412431017619,34.326251335364134],[108.10419714028696,34.326197300279318],[108.10426558765374,34.326137811007982],[108.10432924481744,34.326073221682748],[108.10438773283445,34.326003916796267],[108.1044407035325,34.325930308912369],[108.10448784158326,34.32585283621011],[108.10452886637947,34.325771959875375],[108.10456353370533,34.325688161355451],[108.10465100029076,34.324794659429855],[108.10466410266888,34.324753140538867],[108.10468336021714,34.324714093932663],[108.10470832592746,34.324678425964827],[108.10473842029336,34.324646964563676],[108.10477294476152,34.3246204400143],[108.10481109794664,34.324599468007094],[108.10485199423331,34.324584535346318],[108.10489468433298,34.324575988650338],[108.10493817731891,34.324574026305882],[108.10498146362772,34.324578693863089],[108.10502353849344,34.324589882978152],[108.10506342527022,34.32460733392827],[108.10510019810233,34.324630641640297],[108.10513300341525,34.324659265093366],[108.10516107972889,34.32469253987712],[108.10518377533313,34.324729693614067],[108.10520056341542,34.324769863888079],[108.10554518868933,34.327566667233398],[108.10555562348222,34.327600513415788]]},"properties":{"FID":16,"OBJECTID":17,"道路类":"次干道","length":618,"Shape_Leng":617.93240633999994}},{"type":"Feature","id":17,"geometry":{"type":"LineString","coordinates":[[108.11468580063172,34.32776903483542],[108.11433939815136,34.327733960617131],[108.11399376682751,34.327691962198493],[108.11364904505322,34.327643056395935],[108.11330537085735,34.327587262791667],[108.11296288184926,34.327524603725813],[108.11262171516381,34.327455104287473]]},"properties":{"FID":17,"OBJECTID":18,"道路类":"次干道","length":193,"Shape_Leng":193.28467089099999}},{"type":"Feature","id":18,"geometry":{"type":"LineString","coordinates":[[108.11525715851306,34.327812049061848],[108.11497130535533,34.327792856073486],[108.11468580063172,34.32776903483542]]},"properties":{"FID":18,"OBJECTID":19,"道路类":"次干道","length":53,"Shape_Leng":52.800625168400003}},{"type":"Feature","id":19,"geometry":{"type":"LineString","coordinates":[[108.10555562348222,34.327600513415788],[108.10560436730626,34.327758622975523],[108.10568359046164,34.327794417503512],[108.10576544723801,34.327823692488423],[108.10584940214066,34.327846256417693],[108.10593490594918,34.327861961681485],[108.10602139931048,34.327870705538317],[108.10610831639798,34.327872430787188],[108.10619508861311,34.327867126141783],[108.10628114830507,34.327854826304289],[108.10636593248425,34.327835611738408],[108.10644888650528,34.327809608142942],[108.10652946769538,34.327776985629505],[108.10660714890452,34.327737957609699],[108.10672151018525,34.32756288385994]]},"properties":{"FID":19,"OBJECTID":20,"道路类":"次干道","length":138,"Shape_Leng":137.89059667500001}},{"type":"Feature","id":20,"geometry":{"type":"LineString","coordinates":[[108.11839999359592,34.328642709281581],[108.11818430081433,34.328542573567724],[108.1179660386844,34.328448169225346],[108.11774535946779,34.328359562111785],[108.11752241711231,34.32827681404018],[108.1172973671446,34.328199982736322],[108.11707036656156,34.328129121798447],[108.11684157372086,34.328064280659781],[108.11661114823048,34.328005504554092],[108.11637925083733,34.32795283448413],[108.11614604331514,34.327906307193018],[108.11591168835163,34.327865955138613],[108.11567634943493,34.327831806470883],[108.11546669548051,34.327823168816813],[108.11525715851306,34.327812049061848]]},"properties":{"FID":20,"OBJECTID":21,"道路类":"次干道","length":306,"Shape_Leng":306.45518621399998}},{"type":"Feature","id":21,"geometry":{"type":"LineString","coordinates":[[108.10807097619772,34.326606313755924],[108.10810498476657,34.327453585402658],[108.10832215887154,34.328823210438209],[108.10832539711294,34.328965311833187]]},"properties":{"FID":21,"OBJECTID":22,"道路类":"次干道","length":263,"Shape_Leng":263.04385657500001}},{"type":"Feature","id":22,"geometry":{"type":"LineString","coordinates":[[108.10832539711294,34.328965311833187],[108.10834211474074,34.329698885417116]]},"properties":{"FID":22,"OBJECTID":23,"道路类":"次干道","length":81,"Shape_Leng":81.388747737700001}},{"type":"Feature","id":23,"geometry":{"type":"LineString","coordinates":[[108.10661357178495,34.329799647508736],[108.10662820255598,34.329346667262257],[108.10663883199679,34.328893575463454],[108.10663940983048,34.328862453987966]]},"properties":{"FID":23,"OBJECTID":24,"道路类":"次干道","length":104,"Shape_Leng":103.989641011}},{"type":"Feature","id":24,"geometry":{"type":"LineString","coordinates":[[108.10655881173889,34.330943078260034],[108.10658937859924,34.33037151550522],[108.10661357178495,34.329799647508736]]},"properties":{"FID":24,"OBJECTID":25,"道路类":"次干道","length":127,"Shape_Leng":126.940935513}},{"type":"Feature","id":25,"geometry":{"type":"LineString","coordinates":[[108.10834211474074,34.329698885417116],[108.10835279821859,34.33016768543974],[108.10837190146157,34.33100596479823]]},"properties":{"FID":25,"OBJECTID":26,"道路类":"次干道","length":145,"Shape_Leng":145.018267834}},{"type":"Feature","id":26,"geometry":{"type":"LineString","coordinates":[[108.10837190146157,34.33100596479823],[108.1083724093278,34.331028244475846],[108.10835350487838,34.33188462033997]]},"properties":{"FID":26,"OBJECTID":27,"道路类":"次干道","length":97,"Shape_Leng":97.484331076199993}},{"type":"Feature","id":27,"geometry":{"type":"LineString","coordinates":[[108.10397902931918,34.332380020568024],[108.1036813135446,34.332377939056585],[108.1036060633069,34.33237805052314]]},"properties":{"FID":27,"OBJECTID":28,"道路类":"次干道","length":34,"Shape_Leng":34.322935211599997}},{"type":"Feature","id":28,"geometry":{"type":"LineString","coordinates":[[108.10404054086946,34.332380950939054],[108.10397902931918,34.332380020568024]]},"properties":{"FID":28,"OBJECTID":29,"道路类":"次干道","length":6,"Shape_Leng":5.66145207811}},{"type":"Feature","id":29,"geometry":{"type":"LineString","coordinates":[[108.10524880484483,34.332434302141763],[108.10502161890929,34.332419165834274],[108.10479428791919,34.332406391717917],[108.10441752368359,34.332390433359144],[108.10404054086946,34.332380950939054]]},"properties":{"FID":29,"OBJECTID":30,"道路类":"次干道","length":111,"Shape_Leng":111.366535007}},{"type":"Feature","id":30,"geometry":{"type":"LineString","coordinates":[[108.10647962227195,34.332567682408943],[108.10622853196706,34.332534474111227],[108.10597775834569,34.332498953369779],[108.10561355223358,34.332463576263137],[108.10524880484483,34.332434302141763]]},"properties":{"FID":30,"OBJECTID":31,"道路类":"次干道","length":114,"Shape_Leng":114.276828378}},{"type":"Feature","id":31,"geometry":{"type":"LineString","coordinates":[[108.10647962227195,34.332567682408943],[108.10647873540607,34.332368037324592],[108.10648238790058,34.332168423683981],[108.10649057786715,34.331968944685883],[108.10650330107161,34.331769703459464],[108.10653146125263,34.331375251001809],[108.10655658587528,34.330980593567467],[108.10655881173889,34.330943078260034]]},"properties":{"FID":31,"OBJECTID":32,"道路类":"次干道","length":180,"Shape_Leng":180.405646295}},{"type":"Feature","id":32,"geometry":{"type":"LineString","coordinates":[[108.10755354628473,34.332683374014948],[108.10719507894751,34.332649478632696],[108.10683708399186,34.332610912578801],[108.10647962227195,34.332567682408943]]},"properties":{"FID":32,"OBJECTID":33,"道路类":"次干道","length":100,"Shape_Leng":99.664900736899995}},{"type":"Feature","id":33,"geometry":{"type":"LineString","coordinates":[[108.10833460006886,34.332740996081952],[108.10800522702409,34.332719400648791],[108.10767613433066,34.332693886643192],[108.10755354628473,34.332683374014948]]},"properties":{"FID":33,"OBJECTID":34,"道路类":"次干道","length":72,"Shape_Leng":72.1621601648}},{"type":"Feature","id":34,"geometry":{"type":"LineString","coordinates":[[108.10835350487838,34.33188462033997],[108.10833460006886,34.332740996081952]]},"properties":{"FID":34,"OBJECTID":35,"道路类":"次干道","length":95,"Shape_Leng":95.012437660200007}},{"type":"Feature","id":35,"geometry":{"type":"LineString","coordinates":[[108.11503123176779,34.332738907544424],[108.11446064960393,34.332721894670172],[108.1138899399938,34.332709895315297],[108.1133191469887,34.332702910405999],[108.11274831464641,34.332700940481416],[108.11217748702769,34.332703985693612]]},"properties":{"FID":35,"OBJECTID":36,"道路类":"次干道","length":263,"Shape_Leng":262.66988143700002}},{"type":"Feature","id":36,"geometry":{"type":"LineString","coordinates":[[108.11217748702769,34.332703985693612],[108.11182422774824,34.332729620550474],[108.11147067018024,34.332750746612632],[108.11111687186893,34.332767360441601]]},"properties":{"FID":36,"OBJECTID":37,"道路类":"次干道","length":98,"Shape_Leng":97.862635359500004}},{"type":"Feature","id":37,"geometry":{"type":"LineString","coordinates":[[108.10893634359689,34.332770313930666],[108.10863539224,34.332757288635655],[108.10833460006886,34.332740996081952]]},"properties":{"FID":37,"OBJECTID":38,"道路类":"次干道","length":55,"Shape_Leng":55.471309290299999}},{"type":"Feature","id":38,"geometry":{"type":"LineString","coordinates":[[108.10985328189211,34.332789898950082],[108.109558618026,34.332786902268026],[108.10924743432467,34.332780351947001],[108.10893634359689,34.332770313930666]]},"properties":{"FID":38,"OBJECTID":39,"道路类":"次干道","length":84,"Shape_Leng":84.413007071699994}},{"type":"Feature","id":39,"geometry":{"type":"LineString","coordinates":[[108.11111687186893,34.332767360441601],[108.11069580506876,34.332781250941657],[108.11027457621783,34.332788764352024],[108.10985328189211,34.332789898950082]]},"properties":{"FID":39,"OBJECTID":40,"道路类":"次干道","length":116,"Shape_Leng":116.32084587}},{"type":"Feature","id":40,"geometry":{"type":"LineString","coordinates":[[108.11737776747569,34.332861775854077],[108.11679157494216,34.332823089873166],[108.11620505606598,34.332789714741956],[108.11561825896197,34.332761653198375],[108.11503123176779,34.332738907544424]]},"properties":{"FID":40,"OBJECTID":41,"道路类":"次干道","length":216,"Shape_Leng":216.38231782599999}},{"type":"Feature","id":41,"geometry":{"type":"LineString","coordinates":[[108.11787876968069,34.332899072102236],[108.11737776747569,34.332861775854077]]},"properties":{"FID":41,"OBJECTID":42,"道路类":"次干道","length":46,"Shape_Leng":46.289148534399999}},{"type":"Feature","id":42,"geometry":{"type":"LineString","coordinates":[[108.10629338972475,34.33354965332434],[108.10644392552977,34.332982973793158],[108.10647962227195,34.332567682408943]]},"properties":{"FID":42,"OBJECTID":43,"道路类":"次干道","length":111,"Shape_Leng":110.55384317399999}},{"type":"Feature","id":43,"geometry":{"type":"LineString","coordinates":[[108.10588742672864,34.335077821479089],[108.10629338972475,34.33354965332434]]},"properties":{"FID":43,"OBJECTID":44,"道路类":"次干道","length":174,"Shape_Leng":173.58499861300001}},{"type":"Feature","id":44,"geometry":{"type":"LineString","coordinates":[[108.10539542332594,34.336516579180227],[108.10588742672864,34.335077821479089]]},"properties":{"FID":44,"OBJECTID":45,"道路类":"次干道","length":166,"Shape_Leng":165.89664892499999}},{"type":"Feature","id":45,"geometry":{"type":"LineString","coordinates":[[108.10500911962386,34.337646202770763],[108.10539542332594,34.336516579180227]]},"properties":{"FID":45,"OBJECTID":46,"道路类":"次干道","length":130,"Shape_Leng":130.25199552000001}},{"type":"Feature","id":46,"geometry":{"type":"LineString","coordinates":[[108.10500911962386,34.337646202770763],[108.10669004926683,34.337972332601829],[108.10734918798209,34.338019265473477]]},"properties":{"FID":46,"OBJECTID":47,"道路类":"次干道","length":220,"Shape_Leng":219.724760202}},{"type":"Feature","id":47,"geometry":{"type":"LineString","coordinates":[[108.10434292733183,34.338087714566612],[108.10467495137209,34.337865340980109],[108.10500911962386,34.337646202770763]]},"properties":{"FID":47,"OBJECTID":48,"道路类":"次干道","length":78,"Shape_Leng":78.464973372399996}},{"type":"Feature","id":48,"geometry":{"type":"LineString","coordinates":[[108.10734918798209,34.338019265473477],[108.10964000298905,34.338182352791591]]},"properties":{"FID":48,"OBJECTID":49,"道路类":"次干道","length":212,"Shape_Leng":211.569435322}},{"type":"Feature","id":49,"geometry":{"type":"LineString","coordinates":[[108.10315854822288,34.338920477569729],[108.10343741774281,34.338718656198701],[108.10371800062313,34.338519223698299],[108.1040294576477,34.338302011730249],[108.10434292733183,34.338087714566612]]},"properties":{"FID":49,"OBJECTID":50,"道路类":"次干道","length":143,"Shape_Leng":142.874771143}},{"type":"Feature","id":50,"geometry":{"type":"LineString","coordinates":[[108.09873806195407,34.340168172614753],[108.08872737501848,34.338949361075308]]},"properties":{"FID":50,"OBJECTID":51,"道路类":"次干道","length":931,"Shape_Leng":931.00911887400002}},{"type":"Feature","id":51,"geometry":{"type":"LineString","coordinates":[[108.10053404399659,34.340386744615572],[108.09873806195407,34.340168172614753]]},"properties":{"FID":51,"OBJECTID":52,"道路类":"次干道","length":167,"Shape_Leng":167.026228019}},{"type":"Feature","id":52,"geometry":{"type":"LineString","coordinates":[[108.10053404399659,34.340386744615572],[108.10208421125529,34.33951040281795],[108.10276814261226,34.339123745416707],[108.10289502858605,34.33907441435111],[108.10302054757632,34.3390217020427],[108.10315854822288,34.338920477569729]]},"properties":{"FID":52,"OBJECTID":53,"道路类":"次干道","length":292,"Shape_Leng":291.56571559100001}},{"type":"Feature","id":53,"geometry":{"type":"LineString","coordinates":[[108.10440745483785,34.341067213027124],[108.10256998091288,34.340634486771151],[108.10053404399659,34.340386744615572]]},"properties":{"FID":53,"OBJECTID":54,"道路类":"次干道","length":365,"Shape_Leng":365.09683509299998}},{"type":"Feature","id":54,"geometry":{"type":"LineString","coordinates":[[108.10573669584797,34.341380230226974],[108.10440745483785,34.341067213027124]]},"properties":{"FID":54,"OBJECTID":55,"道路类":"次干道","length":127,"Shape_Leng":127.141843944}},{"type":"Feature","id":55,"geometry":{"type":"LineString","coordinates":[[108.10728923184411,34.341453442949195],[108.10709671124815,34.341424185504927],[108.10690340845559,34.341400643875801],[108.10670949312745,34.341382838724208],[108.10651513546236,34.341370785677647],[108.1063205060472,34.34136449531502],[108.10612577570733,34.341363973157364],[108.10593111535674,34.341369219662958],[108.10573669584797,34.341380230226974]]},"properties":{"FID":55,"OBJECTID":56,"道路类":"次干道","length":144,"Shape_Leng":143.57164754600001}},{"type":"Feature","id":56,"geometry":{"type":"LineString","coordinates":[[108.09773863142766,34.342081572813498],[108.09809332033396,34.34176646605026],[108.10053404399659,34.340386744615572]]},"properties":{"FID":56,"OBJECTID":57,"道路类":"次干道","length":320,"Shape_Leng":319.59557802799998}},{"type":"Feature","id":57,"geometry":{"type":"LineString","coordinates":[[108.11003821826095,34.342915505900628],[108.10989282157102,34.342828355510058],[108.10975097079202,34.342735545249234],[108.10961288612715,34.34263721919293],[108.1094787819333,34.342533529978404],[108.1093488663882,34.34242463856846],[108.10922334116731,34.342310714001577],[108.10910240113076,34.342191933129484],[108.10898623402078,34.342068480342647],[108.10887502017034,34.341940547284011],[108.10868459361356,34.341856973775442],[108.10849151234335,34.34177973111909],[108.10829598676553,34.341708903488318],[108.1080982299495,34.341644568065888],[108.10789845739613,34.341586794959809],[108.10769688680288,34.341535647126982],[108.1074937378266,34.341491180304551],[108.10728923184411,34.341453442949195]]},"properties":{"FID":57,"OBJECTID":58,"道路类":"次干道","length":309,"Shape_Leng":309.20562631299998}},{"type":"Feature","id":58,"geometry":{"type":"LineString","coordinates":[[108.11199064748509,34.343566618258834],[108.11170243044167,34.343519808951044],[108.11152762081424,34.343486398758266],[108.11135410464121,34.34344681612928],[108.11118209979664,34.343401110765683],[108.11101182225688,34.343349340057003],[108.11084348582946,34.343291569008692],[108.11067730188452,34.343227870160447],[108.11051347908949,34.343158323495174],[108.11035222314703,34.343083016338539],[108.11019373653674,34.343002043249307],[108.11003821826095,34.342915505900628]]},"properties":{"FID":58,"OBJECTID":59,"道路类":"次干道","length":195,"Shape_Leng":195.27678671800001}},{"type":"Feature","id":59,"geometry":{"type":"LineString","coordinates":[[108.11295257953705,34.343722838285167],[108.11199064748509,34.343566618258834]]},"properties":{"FID":59,"OBJECTID":60,"道路类":"次干道","length":90,"Shape_Leng":90.189062529099999}},{"type":"Feature","id":60,"geometry":{"type":"LineString","coordinates":[[108.09580178190116,34.343802183304547],[108.09773863142766,34.342081572813498]]},"properties":{"FID":60,"OBJECTID":61,"道路类":"次干道","length":261,"Shape_Leng":261.131137567}},{"type":"Feature","id":61,"geometry":{"type":"LineString","coordinates":[[108.11420273897265,34.343925856635096],[108.11295257953705,34.343722838285167]]},"properties":{"FID":61,"OBJECTID":62,"道路类":"次干道","length":117,"Shape_Leng":117.212295733}},{"type":"Feature","id":62,"geometry":{"type":"LineString","coordinates":[[108.09197868025645,34.347198160378419],[108.09580178190116,34.343802183304547]]},"properties":{"FID":62,"OBJECTID":63,"道路类":"次干道","length":515,"Shape_Leng":515.40944116799994}},{"type":"Feature","id":63,"geometry":{"type":"LineString","coordinates":[[108.10458905871106,34.32126861041035],[108.10473124370193,34.321389106116641],[108.10487758051535,34.321504524156417],[108.10502788791291,34.321614721584254],[108.10518197973869,34.32171956192046],[108.10533966514969,34.321818915320115],[108.10550074885228,34.321912658733872],[108.10566503134406,34.322000676060362],[108.10583230916087,34.322082858289988],[108.10600237512888,34.322159103639933],[108.10617501862113,34.322229317680197],[108.10635002581837,34.322293413450588],[108.1065271799739,34.322351311568383],[108.10670626168201,34.322402940326683],[108.10688704914973,34.322448235783177],[108.1070693184715,34.322487141839375],[108.10725284390645,34.322519610310067],[108.10743739815807,34.322545600982991],[108.10762275265559,34.322565081668671],[108.10780867783718,34.32257802824023],[108.10799494343421,34.322584424663333]]},"properties":{"FID":63,"OBJECTID":64,"道路类":"省道","length":355,"Shape_Leng":355.14859695500002}},{"type":"Feature","id":64,"geometry":{"type":"LineString","coordinates":[[108.10799494343421,34.322584424663333],[108.10818486106621,34.322587046242447],[108.10884677521642,34.322505482974265],[108.10950951477334,34.322430923007467],[108.11017300564151,34.322363374677998],[108.11083717364146,34.322302845537877],[108.11150194451803,34.322249342354368],[108.1121672439486,34.322202871109219],[108.11255105730254,34.322424259531637]]},"properties":{"FID":64,"OBJECTID":65,"道路类":"省道","length":430,"Shape_Leng":429.57936327599998}},{"type":"Feature","id":65,"geometry":{"type":"LineString","coordinates":[[108.11255105730254,34.322424259531637],[108.11322667241438,34.322820003652787],[108.11389885716153,34.32322154674447],[108.11456756177122,34.323628859073942]]},"properties":{"FID":65,"OBJECTID":66,"道路类":"省道","length":229,"Shape_Leng":228.694461706}},{"type":"Feature","id":66,"geometry":{"type":"LineString","coordinates":[[108.1145605757368,34.323619696625229],[108.11456756177122,34.323628859073942]]},"properties":{"FID":66,"OBJECTID":67,"道路类":"省道","length":1,"Shape_Leng":1.2026635640000001}},{"type":"Feature","id":67,"geometry":{"type":"LineString","coordinates":[[108.11456756177122,34.323628859073942],[108.11456876451925,34.323629598967862]]},"properties":{"FID":67,"OBJECTID":68,"道路类":"省道","length":0,"Shape_Leng":0.13780130572300001}},{"type":"Feature","id":68,"geometry":{"type":"LineString","coordinates":[[108.09102644686264,34.323883957394145],[108.09812770403634,34.318319596157281],[108.0982718506815,34.318209036196244],[108.09842015061881,34.318104112943857],[108.09857238355676,34.318004982257904],[108.09872832336161,34.31791179139163],[108.09888773839327,34.317824678774997],[108.09905039184937,34.317743773809063],[108.09921604211705,34.317669196673755],[108.09938444313185,34.317601058149343],[108.09955534474322,34.317539459451908],[108.09972849308612,34.317484492082961],[108.09990363095808,34.317436237693535],[108.10008049820134,34.317394767962909],[108.10025883208921,34.317360144492113],[108.10043836771642,34.317332418712418],[108.10061883839253,34.317311631808977],[108.1007999760382,34.31729781465959],[108.1009815115833,34.317290987788894],[108.10116317536664,34.31729116133782],[108.10134469753653,34.317298335048591],[108.10152580845171,34.317312498265025],[108.10170623908174,34.317333629948457],[108.10188572140672,34.317361698708901],[108.10206398881543,34.317396662851756],[108.10224077650133,34.317438470439683],[108.10241582185594,34.317487059369782],[108.10258886485887,34.31754235746584],[108.10275964846419,34.317604282585542],[108.10292791898212,34.317672742742495],[108.10309342645597,34.317747636242864],[108.10325592503337,34.31782885183641],[108.10341517333154,34.317916268881802],[108.10357093479578,34.318009757525772],[108.10372297805093,34.318109178896016],[108.10387107724497,34.318214385307499],[108.10401501238464,34.318325220481817],[108.10410095946544,34.318900166806387],[108.10419298632446,34.319474171365648],[108.10429108265464,34.32004716987074],[108.10439523746912,34.320619098145485],[108.10450543910251,34.321189892133567],[108.10458905871106,34.32126861041035]]},"properties":{"FID":68,"OBJECTID":69,"道路类":"省道","length":1836,"Shape_Leng":1835.84027345}},{"type":"Feature","id":69,"geometry":{"type":"LineString","coordinates":[[108.10458905871106,34.32126861041035],[108.10447579053586,34.322782830392839],[108.10437604871365,34.322982855152439],[108.10428218181686,34.323185703226706],[108.10419426967229,34.323391202108418],[108.1041123870427,34.323599177036044],[108.1040366035632,34.323809451142353],[108.10396698368199,34.324021845604825],[108.10390358660561,34.324236179797751],[108.10384646624858,34.324452271445807],[108.10379567118753,34.324669936779109],[108.10375124461986,34.324888990689445],[108.10371322432707,34.325109246887735],[108.10368164264261,34.325330518062437],[108.10365652642434,34.325552616038856],[108.10363789703176,34.325775351939157],[108.10362577030777,34.325998536342986],[108.10362015656526,34.326221979448597],[108.10362106057829,34.32644549123421]]},"properties":{"FID":69,"OBJECTID":70,"道路类":"省道","length":585,"Shape_Leng":585.11568341899999}},{"type":"Feature","id":70,"geometry":{"type":"LineString","coordinates":[[108.11456756177122,34.323628859073942],[108.11702616342345,34.32684545349062]]},"properties":{"FID":70,"OBJECTID":71,"道路类":"省道","length":423,"Shape_Leng":422.50682689199999}},{"type":"Feature","id":71,"geometry":{"type":"LineString","coordinates":[[108.11702616342345,34.32684545349062],[108.11839999359592,34.328642709281581]]},"properties":{"FID":71,"OBJECTID":72,"道路类":"省道","length":236,"Shape_Leng":236.07648848299999}},{"type":"Feature","id":72,"geometry":{"type":"LineString","coordinates":[[108.10362106057829,34.32644549123421],[108.10362728170517,34.326637542525035],[108.10363840066636,34.326829372578544],[108.10365441022302,34.327020856506913],[108.10367529995239,34.327211869647648],[108.10370503045506,34.327428418711456],[108.10374090349367,34.327644035327069],[108.10378289008574,34.327858545293999],[108.10383095630958,34.328071775305851],[108.10388506333163,34.328283553090309],[108.10394516743786,34.328493707548368],[108.1040112200691,34.328702068892511],[108.10399274781548,34.330812641939055],[108.10397902931918,34.332380020568024]]},"properties":{"FID":72,"OBJECTID":73,"道路类":"省道","length":662,"Shape_Leng":661.55387586500001}},{"type":"Feature","id":73,"geometry":{"type":"LineString","coordinates":[[108.11839999359592,34.328642709281581],[108.11849676373458,34.32992513085393],[108.11849125223461,34.330081511791576],[108.11847934203203,34.330237535896657],[108.11846105310451,34.330392941460978],[108.11843641612911,34.330547467813858],[108.11840547243085,34.330700855759375],[108.11836827391338,34.330852848011119],[108.1183248829719,34.33100318962375],[108.11827537238852,34.331151628420656],[108.11821982521022,34.331297915416911],[108.11815833460943,34.331441805236935],[108.11809100372788,34.331583056526071],[108.11801794550355,34.331721432355415],[108.11793928248116,34.331856700619248],[108.11785514660673,34.331988634424341],[108.11737776747569,34.332861775854077]]},"properties":{"FID":73,"OBJECTID":74,"道路类":"省道","length":488,"Shape_Leng":487.66410287899998}},{"type":"Feature","id":74,"geometry":{"type":"LineString","coordinates":[[108.10397902931918,34.332380020568024],[108.103971865137,34.333198537834548],[108.10331686099933,34.334359147606726],[108.10246366339776,34.335870882587166],[108.1006257695891,34.337990867612319],[108.09873806195407,34.340168172614753]]},"properties":{"FID":74,"OBJECTID":75,"道路类":"省道","length":1005,"Shape_Leng":1005.28241776}},{"type":"Feature","id":75,"geometry":{"type":"LineString","coordinates":[[108.09873806195407,34.340168172614753],[108.09854543468411,34.340390343561673],[108.09792792039525,34.340999058066544],[108.09580178190116,34.343802183304547]]},"properties":{"FID":75,"OBJECTID":76,"道路类":"省道","length":486,"Shape_Leng":485.97526332000001}},{"type":"Feature","id":76,"geometry":{"type":"LineString","coordinates":[[108.11737776747569,34.332861775854077],[108.11466424766618,34.337824515715198],[108.11433246653158,34.34256248129018],[108.1137083743151,34.349340861126933]]},"properties":{"FID":76,"OBJECTID":77,"道路类":"省道","length":1885,"Shape_Leng":1885.0612425300001}},{"type":"Feature","id":77,"geometry":{"type":"LineString","coordinates":[[108.10494511109344,34.320205325148201],[108.10532334694156,34.318519620758124],[108.10623723030452,34.318193131686137],[108.10845936307894,34.319358547935657]]},"properties":{"FID":77,"OBJECTID":78,"道路类":"支路","length":524,"Shape_Leng":523.73762059499995}},{"type":"Feature","id":78,"geometry":{"type":"LineString","coordinates":[[108.10494511109344,34.320205325148201],[108.10834502889182,34.320086112169676]]},"properties":{"FID":78,"OBJECTID":79,"道路类":"支路","length":313,"Shape_Leng":313.19709891799999}},{"type":"Feature","id":79,"geometry":{"type":"LineString","coordinates":[[108.10494511109344,34.320205325148201],[108.10540568082683,34.321292077308918],[108.10807942025151,34.321166026594263]]},"properties":{"FID":79,"OBJECTID":80,"道路类":"支路","length":374,"Shape_Leng":374.263400155}},{"type":"Feature","id":80,"geometry":{"type":"LineString","coordinates":[[108.10882758562892,34.324175481417157],[108.1080475118722,34.324140910585619]]},"properties":{"FID":80,"OBJECTID":81,"道路类":"支路","length":72,"Shape_Leng":71.894483628499998}},{"type":"Feature","id":81,"geometry":{"type":"LineString","coordinates":[[108.10882758562892,34.324175481417157],[108.10950768401356,34.324205616676053]]},"properties":{"FID":81,"OBJECTID":82,"道路类":"支路","length":63,"Shape_Leng":62.680331351299998}},{"type":"Feature","id":82,"geometry":{"type":"LineString","coordinates":[[108.10950768401356,34.324205616676053],[108.11279544958057,34.324351246803758]]},"properties":{"FID":82,"OBJECTID":83,"道路类":"支路","length":303,"Shape_Leng":303.01178306999998}},{"type":"Feature","id":83,"geometry":{"type":"LineString","coordinates":[[108.10881850464482,34.325842617058882],[108.10882758562892,34.324175481417157]]},"properties":{"FID":83,"OBJECTID":84,"道路类":"支路","length":185,"Shape_Leng":184.93458953800001}},{"type":"Feature","id":84,"geometry":{"type":"LineString","coordinates":[[108.10881850464482,34.325842617058882],[108.10945725707084,34.325812251134799],[108.10950768401356,34.324205616676053]]},"properties":{"FID":84,"OBJECTID":85,"道路类":"支路","length":237,"Shape_Leng":237.16306240599999}},{"type":"Feature","id":85,"geometry":{"type":"LineString","coordinates":[[108.10801763831887,34.325880685280588],[108.10881850464482,34.325842617058882]]},"properties":{"FID":85,"OBJECTID":86,"道路类":"支路","length":74,"Shape_Leng":73.825109884}},{"type":"Feature","id":86,"geometry":{"type":"LineString","coordinates":[[108.10722461457424,34.326783447189001],[108.10723196445703,34.326782649252046]]},"properties":{"FID":86,"OBJECTID":87,"道路类":"支路","length":1,"Shape_Leng":0.68217379754499996}},{"type":"Feature","id":87,"geometry":{"type":"LineString","coordinates":[[108.11268764347133,34.326795967080272],[108.11474531522667,34.326819456634482]]},"properties":{"FID":87,"OBJECTID":88,"道路类":"支路","length":189,"Shape_Leng":189.38466080399999}},{"type":"Feature","id":88,"geometry":{"type":"LineString","coordinates":[[108.11279544958057,34.324351246803758],[108.11488027745142,34.324665983671672],[108.11474531522667,34.326819456634482]]},"properties":{"FID":88,"OBJECTID":89,"道路类":"支路","length":434,"Shape_Leng":434.22578959399999}},{"type":"Feature","id":89,"geometry":{"type":"LineString","coordinates":[[108.11474531522667,34.326819456634482],[108.11702616342345,34.32684545349062]]},"properties":{"FID":89,"OBJECTID":90,"道路类":"支路","length":210,"Shape_Leng":209.92533425600001}},{"type":"Feature","id":90,"geometry":{"type":"LineString","coordinates":[[108.11474531522667,34.326819456634482],[108.11468580063172,34.32776903483542]]},"properties":{"FID":90,"OBJECTID":91,"道路类":"支路","length":105,"Shape_Leng":105.47754954}},{"type":"Feature","id":91,"geometry":{"type":"LineString","coordinates":[[108.10949101299505,34.327994617411356],[108.10822414579179,34.328021052614901]]},"properties":{"FID":91,"OBJECTID":92,"道路类":"支路","length":117,"Shape_Leng":116.62449735200001}},{"type":"Feature","id":92,"geometry":{"type":"LineString","coordinates":[[108.10996771597839,34.32850137598826],[108.10996363105995,34.327984752732014],[108.10949101299505,34.327994617411356]]},"properties":{"FID":92,"OBJECTID":93,"道路类":"支路","length":101,"Shape_Leng":100.81746649900001}},{"type":"Feature","id":93,"geometry":{"type":"LineString","coordinates":[[108.10512915719418,34.328770307593842],[108.10513914892454,34.327626614404494],[108.10555562348222,34.327600513415788]]},"properties":{"FID":93,"OBJECTID":94,"道路类":"支路","length":165,"Shape_Leng":165.30827445700001}},{"type":"Feature","id":94,"geometry":{"type":"LineString","coordinates":[[108.10512915719418,34.328770307593842],[108.10617874808172,34.328834345775661],[108.10663940983048,34.328862453987966]]},"properties":{"FID":94,"OBJECTID":95,"道路类":"支路","length":139,"Shape_Leng":139.35999857900001}},{"type":"Feature","id":95,"geometry":{"type":"LineString","coordinates":[[108.10663940983048,34.328862453987966],[108.10759870964311,34.328920981115374]]},"properties":{"FID":95,"OBJECTID":96,"道路类":"支路","length":89,"Shape_Leng":88.520198052599994}},{"type":"Feature","id":96,"geometry":{"type":"LineString","coordinates":[[108.10759870964311,34.328920981115374],[108.10806288460361,34.328949298142277],[108.10832539711294,34.328965311833187]]},"properties":{"FID":96,"OBJECTID":97,"道路类":"支路","length":67,"Shape_Leng":67.055620808}},{"type":"Feature","id":97,"geometry":{"type":"LineString","coordinates":[[108.10832539711294,34.328965311833187],[108.10921711164553,34.329019704066887]]},"properties":{"FID":97,"OBJECTID":98,"道路类":"支路","length":82,"Shape_Leng":82.283521087799997}},{"type":"Feature","id":98,"geometry":{"type":"LineString","coordinates":[[108.10921711164553,34.329019704066887],[108.10997217947563,34.329065754882897]]},"properties":{"FID":98,"OBJECTID":99,"道路类":"支路","length":70,"Shape_Leng":69.674268939499996}},{"type":"Feature","id":99,"geometry":{"type":"LineString","coordinates":[[108.10997217947563,34.329065754882897],[108.10996771597839,34.32850137598826]]},"properties":{"FID":99,"OBJECTID":100,"道路类":"支路","length":63,"Shape_Leng":62.607039590299998}},{"type":"Feature","id":100,"geometry":{"type":"LineString","coordinates":[[108.10997217947563,34.329065754882897],[108.11121011464202,34.329141244935215]]},"properties":{"FID":100,"OBJECTID":101,"道路类":"支路","length":114,"Shape_Leng":114.230935089}},{"type":"Feature","id":101,"geometry":{"type":"LineString","coordinates":[[108.11121011464202,34.329141244935215],[108.11244552534963,34.329216567930629]]},"properties":{"FID":101,"OBJECTID":102,"道路类":"支路","length":114,"Shape_Leng":113.997784908}},{"type":"Feature","id":102,"geometry":{"type":"LineString","coordinates":[[108.11244552534963,34.329216567930629],[108.1151784527672,34.32937566204825]]},"properties":{"FID":102,"OBJECTID":103,"道路类":"支路","length":252,"Shape_Leng":252.12125400400001}},{"type":"Feature","id":103,"geometry":{"type":"LineString","coordinates":[[108.11525715851306,34.327812049061848],[108.1151784527672,34.32937566204825]]},"properties":{"FID":103,"OBJECTID":104,"道路类":"支路","length":174,"Shape_Leng":173.60039290500001}},{"type":"Feature","id":104,"geometry":{"type":"LineString","coordinates":[[108.10998836417605,34.329674720422574],[108.10997217947563,34.329065754882897]]},"properties":{"FID":104,"OBJECTID":105,"道路类":"支路","length":68,"Shape_Leng":67.568045226999999}},{"type":"Feature","id":105,"geometry":{"type":"LineString","coordinates":[[108.10661357178495,34.329799647508736],[108.10661451823329,34.329799631359585]]},"properties":{"FID":105,"OBJECTID":106,"道路类":"支路","length":0,"Shape_Leng":0.087116588683600005}},{"type":"Feature","id":106,"geometry":{"type":"LineString","coordinates":[[108.10519704855297,34.329824346195437],[108.10512915719418,34.328770307593842]]},"properties":{"FID":106,"OBJECTID":107,"道路类":"支路","length":117,"Shape_Leng":117.0897044}},{"type":"Feature","id":107,"geometry":{"type":"LineString","coordinates":[[108.1040628026858,34.330816263180893],[108.10408212597709,34.328706396165636],[108.10488916586765,34.328755651538408],[108.10512915719418,34.328770307593842]]},"properties":{"FID":107,"OBJECTID":108,"道路类":"支路","length":331,"Shape_Leng":330.66721524600001}},{"type":"Feature","id":108,"geometry":{"type":"LineString","coordinates":[[108.10526494165644,34.330878393589344],[108.10483457705507,34.330856152691233],[108.1040628026858,34.330816263180893]]},"properties":{"FID":108,"OBJECTID":109,"道路类":"支路","length":111,"Shape_Leng":110.841536944}},{"type":"Feature","id":109,"geometry":{"type":"LineString","coordinates":[[108.10526494165644,34.330878393589344],[108.10519704855297,34.329824346195437]]},"properties":{"FID":109,"OBJECTID":110,"道路类":"支路","length":117,"Shape_Leng":117.09070303199999}},{"type":"Feature","id":110,"geometry":{"type":"LineString","coordinates":[[108.10655881173889,34.330943078260034],[108.10609649062056,34.330921363612099],[108.10526494165644,34.330878393589344]]},"properties":{"FID":110,"OBJECTID":111,"道路类":"支路","length":119,"Shape_Leng":119.28498890900001}},{"type":"Feature","id":111,"geometry":{"type":"LineString","coordinates":[[108.10760828695683,34.330992365008967],[108.10655881173889,34.330943078260034]]},"properties":{"FID":111,"OBJECTID":112,"道路类":"支路","length":97,"Shape_Leng":96.732645407500002}},{"type":"Feature","id":112,"geometry":{"type":"LineString","coordinates":[[108.10837190146157,34.33100596479823],[108.10788300171096,34.331005265111173],[108.10760828695683,34.330992365008967]]},"properties":{"FID":112,"OBJECTID":113,"道路类":"支路","length":70,"Shape_Leng":70.312174494199994}},{"type":"Feature","id":113,"geometry":{"type":"LineString","coordinates":[[108.10910082891462,34.33100700424189],[108.10837190146157,34.33100596479823]]},"properties":{"FID":113,"OBJECTID":114,"道路类":"支路","length":67,"Shape_Leng":67.079660932300001}},{"type":"Feature","id":114,"geometry":{"type":"LineString","coordinates":[[108.10991138084519,34.331008781955916],[108.10910082891462,34.33100700424189]]},"properties":{"FID":114,"OBJECTID":115,"道路类":"支路","length":75,"Shape_Leng":74.591316561100001}},{"type":"Feature","id":115,"geometry":{"type":"LineString","coordinates":[[108.10998836417605,34.329674720422574],[108.10991138084519,34.331008781955916]]},"properties":{"FID":115,"OBJECTID":116,"道路类":"支路","length":148,"Shape_Leng":148.15493217100001}},{"type":"Feature","id":116,"geometry":{"type":"LineString","coordinates":[[108.1111340438943,34.331011450294632],[108.10991138084519,34.331008781955916]]},"properties":{"FID":116,"OBJECTID":117,"道路类":"支路","length":113,"Shape_Leng":112.51597793099999}},{"type":"Feature","id":117,"geometry":{"type":"LineString","coordinates":[[108.1111340438943,34.331011450294632],[108.11121011464202,34.329141244935215]]},"properties":{"FID":117,"OBJECTID":118,"道路类":"支路","length":208,"Shape_Leng":207.577163068}},{"type":"Feature","id":118,"geometry":{"type":"LineString","coordinates":[[108.11226573902032,34.331013914901874],[108.1111340438943,34.331011450294632]]},"properties":{"FID":118,"OBJECTID":119,"道路类":"支路","length":104,"Shape_Leng":104.144622395}},{"type":"Feature","id":119,"geometry":{"type":"LineString","coordinates":[[108.11512415302064,34.331240174414361],[108.11226573902032,34.331013914901874]]},"properties":{"FID":119,"OBJECTID":120,"道路类":"支路","length":264,"Shape_Leng":264.23994160199999}},{"type":"Feature","id":120,"geometry":{"type":"LineString","coordinates":[[108.1151784527672,34.32937566204825],[108.11512415302064,34.331240174414361]]},"properties":{"FID":120,"OBJECTID":121,"道路类":"支路","length":207,"Shape_Leng":206.88795156200001}},{"type":"Feature","id":121,"geometry":{"type":"LineString","coordinates":[[108.10835350487838,34.33188462033997],[108.1090196483851,34.331887931636651]]},"properties":{"FID":121,"OBJECTID":122,"道路类":"支路","length":61,"Shape_Leng":61.302328529100002}},{"type":"Feature","id":122,"geometry":{"type":"LineString","coordinates":[[108.1090196483851,34.331887931636651],[108.10988256361583,34.331892216803162]]},"properties":{"FID":122,"OBJECTID":123,"道路类":"支路","length":79,"Shape_Leng":79.410380929599995}},{"type":"Feature","id":123,"geometry":{"type":"LineString","coordinates":[[108.10988256361583,34.331892216803162],[108.10991138084519,34.331008781955916]]},"properties":{"FID":123,"OBJECTID":124,"道路类":"支路","length":98,"Shape_Leng":98.034000403999997}},{"type":"Feature","id":124,"geometry":{"type":"LineString","coordinates":[[108.10988256361583,34.331892216803162],[108.11112537035658,34.331898376607079]]},"properties":{"FID":124,"OBJECTID":125,"道路类":"支路","length":114,"Shape_Leng":114.370152088}},{"type":"Feature","id":125,"geometry":{"type":"LineString","coordinates":[[108.1111340438943,34.331011450294632],[108.11112537035658,34.331898376607079]]},"properties":{"FID":125,"OBJECTID":126,"道路类":"支路","length":98,"Shape_Leng":98.388669642500005}},{"type":"Feature","id":126,"geometry":{"type":"LineString","coordinates":[[108.11112537035658,34.331898376607079],[108.11217674437697,34.331903577861254]]},"properties":{"FID":126,"OBJECTID":127,"道路类":"支路","length":97,"Shape_Leng":96.753412859299999}},{"type":"Feature","id":127,"geometry":{"type":"LineString","coordinates":[[108.10404054086946,34.332380950939054],[108.1040628026858,34.330816263180893]]},"properties":{"FID":127,"OBJECTID":128,"道路类":"支路","length":174,"Shape_Leng":173.580578847}},{"type":"Feature","id":128,"geometry":{"type":"LineString","coordinates":[[108.10524880484483,34.332434302141763],[108.10526494165644,34.330878393589344]]},"properties":{"FID":128,"OBJECTID":129,"道路类":"支路","length":173,"Shape_Leng":172.601019347}},{"type":"Feature","id":129,"geometry":{"type":"LineString","coordinates":[[108.11512415302064,34.331240174414361],[108.11503123176779,34.332738907544424]]},"properties":{"FID":129,"OBJECTID":130,"道路类":"支路","length":166,"Shape_Leng":166.47205222100001}},{"type":"Feature","id":130,"geometry":{"type":"LineString","coordinates":[[108.11112537035658,34.331898376607079],[108.11111687186893,34.332767360441601]]},"properties":{"FID":130,"OBJECTID":131,"道路类":"支路","length":96,"Shape_Leng":96.398285514099996}},{"type":"Feature","id":131,"geometry":{"type":"LineString","coordinates":[[108.10985328189211,34.332789898950082],[108.10988256361583,34.331892216803162]]},"properties":{"FID":131,"OBJECTID":132,"道路类":"支路","length":100,"Shape_Leng":99.615023970600006}},{"type":"Feature","id":132,"geometry":{"type":"LineString","coordinates":[[108.11823565114629,34.331255209702938],[108.11522719953183,34.331248329663573],[108.11512415302064,34.331240174414361]]},"properties":{"FID":132,"OBJECTID":133,"道路类":"支路","length":286,"Shape_Leng":286.37899679100002}},{"type":"Feature","id":133,"geometry":{"type":"LineString","coordinates":[[108.10404221614844,34.333193966167677],[108.10404054086946,34.332380950939054]]},"properties":{"FID":133,"OBJECTID":134,"道路类":"支路","length":90,"Shape_Leng":90.186721173600006}},{"type":"Feature","id":134,"geometry":{"type":"LineString","coordinates":[[108.10508887976157,34.33335934532203],[108.10404221614844,34.333193966167677]]},"properties":{"FID":134,"OBJECTID":135,"道路类":"支路","length":98,"Shape_Leng":98.048166309400003}},{"type":"Feature","id":135,"geometry":{"type":"LineString","coordinates":[[108.10508887976157,34.33335934532203],[108.10524880484483,34.332434302141763]]},"properties":{"FID":135,"OBJECTID":136,"道路类":"支路","length":104,"Shape_Leng":103.66365328000001}},{"type":"Feature","id":136,"geometry":{"type":"LineString","coordinates":[[108.10629338972475,34.33354965332434],[108.10508887976157,34.33335934532203]]},"properties":{"FID":136,"OBJECTID":137,"道路类":"支路","length":113,"Shape_Leng":112.83424525700001}},{"type":"Feature","id":137,"geometry":{"type":"LineString","coordinates":[[108.10829290355613,34.333878059132857],[108.10629338972475,34.33354965332434]]},"properties":{"FID":137,"OBJECTID":138,"道路类":"支路","length":188,"Shape_Leng":187.57101585199999}},{"type":"Feature","id":138,"geometry":{"type":"LineString","coordinates":[[108.10833460006886,34.332740996081952],[108.10829290355613,34.333878059132857]]},"properties":{"FID":138,"OBJECTID":139,"道路类":"支路","length":126,"Shape_Leng":126.191111217}},{"type":"Feature","id":139,"geometry":{"type":"LineString","coordinates":[[108.10338559968609,34.334378840151331],[108.10404221614844,34.333193966167677]]},"properties":{"FID":139,"OBJECTID":140,"道路类":"支路","length":145,"Shape_Leng":144.65984967700001}},{"type":"Feature","id":140,"geometry":{"type":"LineString","coordinates":[[108.10338559968609,34.334378840151331],[108.10464756992376,34.334740369309934]]},"properties":{"FID":140,"OBJECTID":141,"道路类":"支路","length":123,"Shape_Leng":122.8577176}},{"type":"Feature","id":141,"geometry":{"type":"LineString","coordinates":[[108.10464756992376,34.334740369309934],[108.10508887976157,34.33335934532203]]},"properties":{"FID":141,"OBJECTID":142,"道路类":"支路","length":158,"Shape_Leng":158.48623770099999}},{"type":"Feature","id":142,"geometry":{"type":"LineString","coordinates":[[108.10464756992376,34.334740369309934],[108.10557006013971,34.335004633775462],[108.10588742672864,34.335077821479089]]},"properties":{"FID":142,"OBJECTID":143,"道路类":"支路","length":120,"Shape_Leng":120.11907005800001}},{"type":"Feature","id":143,"geometry":{"type":"LineString","coordinates":[[108.10588742672864,34.335077821479089],[108.1079759955999,34.33555943958433]]},"properties":{"FID":143,"OBJECTID":144,"道路类":"支路","length":199,"Shape_Leng":199.478160258}},{"type":"Feature","id":144,"geometry":{"type":"LineString","coordinates":[[108.1079759955999,34.33555943958433],[108.10829290355613,34.333878059132857]]},"properties":{"FID":144,"OBJECTID":145,"道路类":"支路","length":189,"Shape_Leng":188.77920179099999}},{"type":"Feature","id":145,"geometry":{"type":"LineString","coordinates":[[108.1079759955999,34.33555943958433],[108.10901524396677,34.335799072771195]]},"properties":{"FID":145,"OBJECTID":146,"道路类":"支路","length":99,"Shape_Leng":99.257264701799997}},{"type":"Feature","id":146,"geometry":{"type":"LineString","coordinates":[[108.10901524396677,34.335799072771195],[108.10902420191007,34.335634550743031],[108.10903951877174,34.335470498506695],[108.10906117161316,34.335307161747345],[108.109089128007,34.335144785078633],[108.10912334608567,34.334983611676385],[108.10916377460404,34.334823882914414],[108.10921361054911,34.334690817505802],[108.10927005690341,34.334560418757818],[108.10933297161861,34.334433014821457],[108.10940219636861,34.334308926311202],[108.10947755694797,34.334188465498208],[108.10955886371032,34.334071935524442],[108.10964591204562,34.333959629639871],[108.10973848289504,34.333851830464418],[108.10983634330223,34.333748809276827],[108.10993924699957,34.333650825331901],[108.11004693502791,34.333558125208164],[108.11015913638823,34.333470942187269],[108.11027556872362,34.333389495666992],[108.11039593902984,34.333313990609078],[108.11051994439268,34.333244617023489],[108.11064727275021,34.333181549490185],[108.11077760367816,34.333124946719856],[108.11091060919621,34.333074951154465],[108.11104595459338,34.333031688608834],[108.11118329927034,34.332995267953997],[108.11132229759654,34.332965780843246],[108.11146259978,34.332943301481457],[108.11160385274754,34.332927886438391],[108.1117457010333,34.332919574506299],[108.11188778767333,34.33291838660233],[108.11202975510382,34.332924325715851],[108.11217124606097,34.332937376900986]]},"properties":{"FID":146,"OBJECTID":147,"道路类":"支路","length":488,"Shape_Leng":487.85126007000002}},{"type":"Feature","id":147,"geometry":{"type":"LineString","coordinates":[[108.10256626010418,34.335908493940416],[108.10338559968609,34.334378840151331]]},"properties":{"FID":147,"OBJECTID":148,"道路类":"支路","length":186,"Shape_Leng":185.67888953100001}},{"type":"Feature","id":148,"geometry":{"type":"LineString","coordinates":[[108.10901524396677,34.335799072771195],[108.11108213225673,34.336275631346815]]},"properties":{"FID":148,"OBJECTID":149,"道路类":"支路","length":197,"Shape_Leng":197.40412758299999}},{"type":"Feature","id":149,"geometry":{"type":"LineString","coordinates":[[108.10256626010418,34.335908493940416],[108.10539542332594,34.336516579180227]]},"properties":{"FID":149,"OBJECTID":150,"道路类":"支路","length":269,"Shape_Leng":268.93448684100002}},{"type":"Feature","id":150,"geometry":{"type":"LineString","coordinates":[[108.11108213225673,34.336275631346815],[108.11324230951769,34.336699486246914]]},"properties":{"FID":150,"OBJECTID":151,"道路类":"支路","length":204,"Shape_Leng":204.26240041099999}},{"type":"Feature","id":151,"geometry":{"type":"LineString","coordinates":[[108.10539542332594,34.336516579180227],[108.10764238872156,34.336868655173994]]},"properties":{"FID":151,"OBJECTID":152,"道路类":"支路","length":210,"Shape_Leng":210.41930311300001}},{"type":"Feature","id":152,"geometry":{"type":"LineString","coordinates":[[108.10764238872156,34.336868655173994],[108.1079759955999,34.33555943958433]]},"properties":{"FID":152,"OBJECTID":153,"道路类":"支路","length":148,"Shape_Leng":148.438476536}},{"type":"Feature","id":153,"geometry":{"type":"LineString","coordinates":[[108.11324230951769,34.336699486246914],[108.11417337707283,34.336882160508608]]},"properties":{"FID":153,"OBJECTID":154,"道路类":"支路","length":88,"Shape_Leng":88.0394040332}},{"type":"Feature","id":154,"geometry":{"type":"LineString","coordinates":[[108.11417337707283,34.336882160508608],[108.11370657885217,34.334673923511964],[108.11218516767956,34.334394550466747],[108.11194772267243,34.334352087126767]]},"properties":{"FID":154,"OBJECTID":155,"道路类":"支路","length":414,"Shape_Leng":414.43732509400002}},{"type":"Feature","id":155,"geometry":{"type":"LineString","coordinates":[[108.10256626010418,34.335908493940416],[108.1014901095454,34.337139644734798]]},"properties":{"FID":155,"OBJECTID":156,"道路类":"支路","length":169,"Shape_Leng":168.693576291}},{"type":"Feature","id":156,"geometry":{"type":"LineString","coordinates":[[108.10734918798209,34.338019265473477],[108.10764238872156,34.336868655173994]]},"properties":{"FID":156,"OBJECTID":157,"道路类":"支路","length":130,"Shape_Leng":130.455965091}},{"type":"Feature","id":157,"geometry":{"type":"LineString","coordinates":[[108.1014901095454,34.337139644734798],[108.10434292733183,34.338087714566612]]},"properties":{"FID":157,"OBJECTID":158,"道路类":"支路","length":283,"Shape_Leng":282.79289277999999}},{"type":"Feature","id":158,"geometry":{"type":"LineString","coordinates":[[108.10964000298905,34.338182352791591],[108.10955675323066,34.338038149112471],[108.10947906707614,34.337890873572285],[108.10940705769841,34.337740740721571],[108.10934083000052,34.3375879692734],[108.10928048046277,34.337432781784742],[108.10922609700219,34.337275404332232],[108.10917775884441,34.337116066182858],[108.10913553640833,34.336954999459927],[108.10909949120344,34.336792438804949],[108.1090696757403,34.336628621035764],[108.10904613345397,34.33646378480158],[108.10902889864079,34.336298170235324],[108.10901799640837,34.336132018603756],[108.10901344263905,34.335965571956066],[108.10901524396677,34.335799072771195]]},"properties":{"FID":158,"OBJECTID":159,"道路类":"支路","length":273,"Shape_Leng":273.22840073600003}},{"type":"Feature","id":159,"geometry":{"type":"LineString","coordinates":[[108.1014901095454,34.337139644734798],[108.1007131502725,34.338028482188804],[108.10315854822288,34.338920477569729]]},"properties":{"FID":159,"OBJECTID":160,"道路类":"支路","length":368,"Shape_Leng":367.60259625499998}},{"type":"Feature","id":160,"geometry":{"type":"LineString","coordinates":[[108.10315854822288,34.338920477569729],[108.10486649595254,34.339239714156278]]},"properties":{"FID":160,"OBJECTID":161,"道路类":"支路","length":161,"Shape_Leng":161.09918309400001}},{"type":"Feature","id":161,"geometry":{"type":"LineString","coordinates":[[108.10486649595254,34.339239714156278],[108.10496142919335,34.338861752788006],[108.1049880474295,34.338183331330221],[108.10500911962386,34.337646202770763]]},"properties":{"FID":161,"OBJECTID":162,"道路类":"支路","length":178,"Shape_Leng":177.737782108}},{"type":"Feature","id":162,"geometry":{"type":"LineString","coordinates":[[108.10486649595254,34.339239714156278],[108.10696735699651,34.339632356956585]]},"properties":{"FID":162,"OBJECTID":163,"道路类":"支路","length":198,"Shape_Leng":198.15842382599999}},{"type":"Feature","id":163,"geometry":{"type":"LineString","coordinates":[[108.10696735699651,34.339632356956585],[108.10734918798209,34.338019265473477]]},"properties":{"FID":163,"OBJECTID":164,"道路类":"支路","length":182,"Shape_Leng":182.35482355400001}},{"type":"Feature","id":164,"geometry":{"type":"LineString","coordinates":[[108.11024986762608,34.337358393401423],[108.11070194427161,34.337530466798739],[108.11096530432741,34.338680158365747],[108.11138345758077,34.338952559591199],[108.11293046538617,34.340108937672632]]},"properties":{"FID":164,"OBJECTID":165,"道路类":"支路","length":416,"Shape_Leng":416.12810844500001}},{"type":"Feature","id":165,"geometry":{"type":"LineString","coordinates":[[108.11324230951769,34.336699486246914],[108.11322288584978,34.338408034191687],[108.11293046538617,34.340108937672632]]},"properties":{"FID":165,"OBJECTID":166,"道路类":"支路","length":380,"Shape_Leng":380.12327234999998}},{"type":"Feature","id":166,"geometry":{"type":"LineString","coordinates":[[108.10696735699651,34.339632356956585],[108.10701310904149,34.339640907189917],[108.10819658090688,34.340168950686866]]},"properties":{"FID":166,"OBJECTID":167,"道路类":"支路","length":128,"Shape_Leng":127.967024552}},{"type":"Feature","id":167,"geometry":{"type":"LineString","coordinates":[[108.11293046538617,34.340108937672632],[108.11296759545291,34.340136691561582],[108.11394406478989,34.340280741259882]]},"properties":{"FID":167,"OBJECTID":168,"道路类":"支路","length":96,"Shape_Leng":95.858678339500003}},{"type":"Feature","id":168,"geometry":{"type":"LineString","coordinates":[[108.11417337707283,34.336882160508608],[108.11452881278269,34.337986954097701],[108.11394406478989,34.340280741259882]]},"properties":{"FID":168,"OBJECTID":169,"道路类":"支路","length":387,"Shape_Leng":386.916078734}},{"type":"Feature","id":169,"geometry":{"type":"LineString","coordinates":[[108.10440745483785,34.341067213027124],[108.10469329064995,34.339929296819321],[108.10486649595254,34.339239714156278]]},"properties":{"FID":169,"OBJECTID":170,"道路类":"支路","length":207,"Shape_Leng":207.07564821599999}},{"type":"Feature","id":170,"geometry":{"type":"LineString","coordinates":[[108.10573669584797,34.341380230226974],[108.10696735699651,34.339632356956585]]},"properties":{"FID":170,"OBJECTID":171,"道路类":"支路","length":225,"Shape_Leng":224.53526986200001}},{"type":"Feature","id":171,"geometry":{"type":"LineString","coordinates":[[108.11003821826095,34.342915505900628],[108.11047436724743,34.34222451438086],[108.11094596034916,34.341477348532862],[108.10995779606881,34.339623876384799],[108.10964000298905,34.338182352791591]]},"properties":{"FID":171,"OBJECTID":172,"道路类":"支路","length":567,"Shape_Leng":567.44442483600005}},{"type":"Feature","id":172,"geometry":{"type":"LineString","coordinates":[[108.11293046538617,34.340108937672632],[108.11267338719446,34.34178084652028],[108.11199064748509,34.343566618258834]]},"properties":{"FID":172,"OBJECTID":173,"道路类":"支路","length":395,"Shape_Leng":394.78092137900001}},{"type":"Feature","id":173,"geometry":{"type":"LineString","coordinates":[[108.11394406478989,34.340280741259882],[108.11368936727214,34.341279776907633],[108.1132599281939,34.341947509244505],[108.11295257953705,34.343722838285167]]},"properties":{"FID":173,"OBJECTID":174,"道路类":"支路","length":396,"Shape_Leng":396.17919206200003}},{"type":"Feature","id":174,"geometry":{"type":"LineString","coordinates":[[108.10374333044861,34.343738445497458],[108.10333154950798,34.343676507696387],[108.10292089016845,34.343607524067053],[108.10251147297944,34.343531514859684],[108.10210341812575,34.343448502386849],[108.10169684539228,34.343358511016937],[108.10129187412882,34.343261567166998],[108.10088862321508,34.343157699294991],[108.10048721102577,34.343046937891437],[108.10008775539576,34.342929315470435],[108.09969037358566,34.342804866560165],[108.09929518224727,34.342673627692719],[108.09890229738939,34.342535637393397],[108.09851183434373,34.34239093616938],[108.09812390773108,34.342239566497838],[108.09773863142766,34.342081572813498]]},"properties":{"FID":174,"OBJECTID":175,"道路类":"支路","length":584,"Shape_Leng":584.48051105100001}},{"type":"Feature","id":175,"geometry":{"type":"LineString","coordinates":[[108.10374333044861,34.343738445497458],[108.10389044468133,34.343125400770475],[108.10440745483785,34.341067213027124]]},"properties":{"FID":175,"OBJECTID":176,"道路类":"支路","length":303,"Shape_Leng":302.55387862100002}},{"type":"Feature","id":176,"geometry":{"type":"LineString","coordinates":[[108.10554007783838,34.343929511169193],[108.10517970677368,34.343901606901341],[108.10481977262607,34.343868540879249],[108.10446034932582,34.343830319894657],[108.10410151069824,34.34378695179813],[108.10374333044861,34.343738445497458]]},"properties":{"FID":176,"OBJECTID":177,"道路类":"支路","length":167,"Shape_Leng":166.72490089799999}},{"type":"Feature","id":177,"geometry":{"type":"LineString","coordinates":[[108.10554012457648,34.343929514734846],[108.10554007783838,34.343929511169193]]},"properties":{"FID":177,"OBJECTID":178,"道路类":"支路","length":0,"Shape_Leng":0.0043185648313300001}},{"type":"Feature","id":178,"geometry":{"type":"LineString","coordinates":[[108.10384578339098,34.34632775705802],[108.10385267484442,34.345485635633224],[108.10352711547647,34.344794631278155],[108.10352066240813,34.344739332554646],[108.10352112540598,34.344683660510078],[108.10352849730437,34.344628476762225],[108.10354266401086,34.344574635371643],[108.10374333044861,34.343738445497458]]},"properties":{"FID":178,"OBJECTID":179,"道路类":"支路","length":295,"Shape_Leng":294.91366635899999}},{"type":"Feature","id":179,"geometry":{"type":"LineString","coordinates":[[108.10384578344654,34.346327802131974],[108.10384578339098,34.34632775705802]]},"properties":{"FID":179,"OBJECTID":180,"道路类":"支路","length":0,"Shape_Leng":0.0050000008195599998}},{"type":"Feature","id":180,"geometry":{"type":"LineString","coordinates":[[108.11199064748509,34.343566618258834],[108.11082416270116,34.34636852987358],[108.11083335120738,34.346628039522621]]},"properties":{"FID":180,"OBJECTID":181,"道路类":"支路","length":358,"Shape_Leng":357.62132487500003}},{"type":"Feature","id":181,"geometry":{"type":"LineString","coordinates":[[108.10984629767594,34.346652801141659],[108.1101382153167,34.346306377908817],[108.1101671482847,34.345672091461232],[108.1097918829087,34.344658342112737],[108.10977057629407,34.343339525656781],[108.11003821826095,34.342915505900628]]},"properties":{"FID":181,"OBJECTID":182,"道路类":"支路","length":434,"Shape_Leng":434.33104548}},{"type":"Feature","id":182,"geometry":{"type":"LineString","coordinates":[[108.10996363105995,34.327984752732014],[108.10994360452392,34.326645082069369]]},"properties":{"FID":182,"OBJECTID":183,"道路类":"支路","length":149,"Shape_Leng":148.619020608}},{"type":"Feature","id":183,"geometry":{"type":"LineString","coordinates":[[108.11126160516345,34.327104789155207],[108.11123298659324,34.328505061648777],[108.11121011464202,34.329141244935215]]},"properties":{"FID":183,"OBJECTID":184,"道路类":"支路","length":226,"Shape_Leng":225.95463264200001}},{"type":"Feature","id":184,"geometry":{"type":"LineString","coordinates":[[108.10996363105995,34.327984752732014],[108.1112440052095,34.327965926428561]]},"properties":{"FID":184,"OBJECTID":185,"道路类":"支路","length":118,"Shape_Leng":117.84920158600001}},{"type":"Feature","id":185,"geometry":{"type":"LineString","coordinates":[[108.10519704855297,34.329824346195437],[108.10996992455787,34.329994262816975]]},"properties":{"FID":185,"OBJECTID":186,"道路类":"支路","length":440,"Shape_Leng":439.63394306800001}},{"type":"Feature","id":186,"geometry":{"type":"LineString","coordinates":[[108.10663940983048,34.328862453987966],[108.10651523869568,34.324129999834327]]},"properties":{"FID":186,"OBJECTID":187,"道路类":"支路","length":525,"Shape_Leng":525.08806440700005}},{"type":"Feature","id":187,"geometry":{"type":"LineString","coordinates":[[108.10651523869568,34.324129999834327],[108.1080475118722,34.324140910585619]]},"properties":{"FID":187,"OBJECTID":188,"道路类":"支路","length":141,"Shape_Leng":141.02415018100001}},{"type":"Feature","id":188,"geometry":{"type":"LineString","coordinates":[[108.11255105730254,34.322424259531637],[108.11250261144086,34.322194330764702],[108.11245017790247,34.321965278448779],[108.11239377251759,34.321737171737048],[108.11018280991267,34.315886681466196]]},"properties":{"FID":188,"OBJECTID":189,"道路类":"主干道","length":758,"Shape_Leng":757.72665717699999}},{"type":"Feature","id":189,"geometry":{"type":"LineString","coordinates":[[108.11279544958057,34.324351246803758],[108.11277782338766,34.324074075531136],[108.11275441366307,34.323797332723025],[108.1127252306141,34.323521139046967],[108.11269028696537,34.323245614931039],[108.11264959795328,34.322970880511392],[108.11260318131936,34.322697055579837],[108.11255105730254,34.322424259531637]]},"properties":{"FID":189,"OBJECTID":190,"道路类":"主干道","length":215,"Shape_Leng":215.07057431800001}},{"type":"Feature","id":190,"geometry":{"type":"LineString","coordinates":[[108.11268764347133,34.326795967080272],[108.11279871262578,34.325685490645192],[108.1128088469069,34.32541872449962],[108.11281358857781,34.325151808039593],[108.11281293570218,34.324884850264219],[108.11280688854663,34.324617960189499],[108.11279544958057,34.324351246803758]]},"properties":{"FID":190,"OBJECTID":191,"道路类":"主干道","length":272,"Shape_Leng":271.65600228400001}},{"type":"Feature","id":191,"geometry":{"type":"LineString","coordinates":[[108.11262171516381,34.327455104287473],[108.11268764347133,34.326795967080272]]},"properties":{"FID":191,"OBJECTID":192,"道路类":"主干道","length":73,"Shape_Leng":73.368377307599999}},{"type":"Feature","id":192,"geometry":{"type":"LineString","coordinates":[[108.11244552534963,34.329216567930629],[108.11262171516381,34.327455104287473]]},"properties":{"FID":192,"OBJECTID":193,"道路类":"主干道","length":196,"Shape_Leng":196.06807586900001}},{"type":"Feature","id":193,"geometry":{"type":"LineString","coordinates":[[108.11226573902032,34.331013914901874],[108.11244552534963,34.329216567930629]]},"properties":{"FID":193,"OBJECTID":194,"道路类":"主干道","length":200,"Shape_Leng":200.06232374999999}},{"type":"Feature","id":194,"geometry":{"type":"LineString","coordinates":[[108.11217674437697,34.331903577861254],[108.11224611868612,34.331210058391925],[108.11226573902032,34.331013914901874]]},"properties":{"FID":194,"OBJECTID":195,"道路类":"主干道","length":99,"Shape_Leng":99.028233780500003}},{"type":"Feature","id":195,"geometry":{"type":"LineString","coordinates":[[108.11217748702769,34.332703985693612],[108.11217612889646,34.332508142166311],[108.11216876111223,34.332312432566496],[108.11215539061583,34.332117041262876],[108.11217674437697,34.331903577861254]]},"properties":{"FID":195,"OBJECTID":196,"道路类":"主干道","length":89,"Shape_Leng":88.917076476899993}},{"type":"Feature","id":196,"geometry":{"type":"LineString","coordinates":[[108.11217124606097,34.332937376900986],[108.11217543460897,34.332820709857742],[108.11217748702769,34.332703985693612]]},"properties":{"FID":196,"OBJECTID":197,"道路类":"主干道","length":26,"Shape_Leng":25.897114837099998}},{"type":"Feature","id":197,"geometry":{"type":"LineString","coordinates":[[108.11194772267243,34.334352087126767],[108.11199885916972,34.334153543993665],[108.11204365881247,34.333953475732642],[108.11208207632417,34.333752084541544],[108.11211407287841,34.333549573955217],[108.11213961613804,34.333346148639819],[108.11215868028792,34.333142014185974],[108.11217124606097,34.332937376900986]]},"properties":{"FID":197,"OBJECTID":198,"道路类":"主干道","length":159,"Shape_Leng":158.50223123200001}},{"type":"Feature","id":198,"geometry":{"type":"LineString","coordinates":[[108.11108213225673,34.336275631346815],[108.11119494438134,34.336096416894357],[108.11130216932779,34.335913804719809],[108.11140370485244,34.335727968951815],[108.11149945413675,34.335539086792821],[108.11158932587963,34.335347338350161],[108.11167323438448,34.335152906464288],[108.11175109964093,34.334955976534431],[108.11182284740103,34.334756736341824],[108.11188840925023,34.334555375870622],[108.11194772267243,34.334352087126767]]},"properties":{"FID":198,"OBJECTID":199,"道路类":"主干道","length":228,"Shape_Leng":228.44096308600001}},{"type":"Feature","id":199,"geometry":{"type":"LineString","coordinates":[[108.11024986762608,34.337358393401423],[108.11030760525539,34.337280385831676],[108.11044808066328,34.337122043751641],[108.11058413558224,34.33695988761221],[108.11071566650261,34.33679404078071],[108.11084257335651,34.336624629432315],[108.11096475959404,34.33645178245407],[108.11108213225673,34.336275631346815]]},"properties":{"FID":199,"OBJECTID":200,"道路类":"主干道","length":143,"Shape_Leng":142.58234695199999}},{"type":"Feature","id":200,"geometry":{"type":"LineString","coordinates":[[108.10964000298905,34.338182352791591],[108.11024986762608,34.337358393401423]]},"properties":{"FID":200,"OBJECTID":201,"道路类":"主干道","length":107,"Shape_Leng":107.25367549800001}},{"type":"Feature","id":201,"geometry":{"type":"LineString","coordinates":[[108.10819658090688,34.340168950686866],[108.10876120055512,34.339369620497052],[108.1088867586046,34.339199994468565],[108.1093553530325,34.338566923055396],[108.10964000298905,34.338182352791591]]},"properties":{"FID":201,"OBJECTID":202,"道路类":"主干道","length":257,"Shape_Leng":257.31426391100001}},{"type":"Feature","id":202,"geometry":{"type":"LineString","coordinates":[[108.10728923184411,34.341453442949195],[108.10819658090688,34.340168950686866]]},"properties":{"FID":202,"OBJECTID":203,"道路类":"主干道","length":165,"Shape_Leng":165.14535227600001}},{"type":"Feature","id":203,"geometry":{"type":"LineString","coordinates":[[108.10554007783838,34.343929511169193],[108.10728923184411,34.341453442949195]]},"properties":{"FID":203,"OBJECTID":204,"道路类":"主干道","length":318,"Shape_Leng":318.34705716000002}},{"type":"Feature","id":204,"geometry":{"type":"LineString","coordinates":[[108.10384578339098,34.34632775705802],[108.10554007783838,34.343929511169193]]},"properties":{"FID":204,"OBJECTID":205,"道路类":"主干道","length":308,"Shape_Leng":308.34466845899999}},{"type":"Feature","id":205,"geometry":{"type":"LineString","coordinates":[[108.10261957186339,34.348063340560103],[108.10384578339098,34.34632775705802]]},"properties":{"FID":205,"OBJECTID":206,"道路类":"主干道","length":223,"Shape_Leng":223.14745284}},{"type":"Feature","id":206,"geometry":{"type":"LineString","coordinates":[[108.10656136047065,34.325887855840072],[108.10801763831887,34.325880685280588]]},"properties":{"FID":206,"OBJECTID":207,"道路类":"支路","length":134,"Shape_Leng":134.02449518500001}},{"type":"Feature","id":207,"geometry":{"type":"LineString","coordinates":[[108.10651523869568,34.324129999834327],[108.10651029569257,34.323545040793697]]},"properties":{"FID":207,"OBJECTID":208,"道路类":"支路","length":65,"Shape_Leng":64.890153433799995}},{"type":"Feature","id":208,"geometry":{"type":"LineString","coordinates":[[108.10415037436151,34.323509034095572],[108.10806977797594,34.323568809805877],[108.11272993515792,34.323570865372616]]},"properties":{"FID":208,"OBJECTID":209,"道路类":"支路","length":790,"Shape_Leng":789.66502267199996}},{"type":"Feature","id":209,"geometry":{"type":"LineString","coordinates":[[108.10950768401356,34.324205616676053],[108.10953927211459,34.323569476771375]]},"properties":{"FID":209,"OBJECTID":210,"道路类":"支路","length":71,"Shape_Leng":70.625832568600003}},{"type":"Feature","id":210,"geometry":{"type":"LineString","coordinates":[[108.10079665541338,34.343133732762325],[108.10256998091288,34.340634486771151],[108.10311297563129,34.339898859706445]]},"properties":{"FID":210,"OBJECTID":211,"道路类":"支路","length":417,"Shape_Leng":417.37426188500001}},{"type":"Feature","id":211,"geometry":{"type":"LineString","coordinates":[[108.10188377266505,34.339623717316314],[108.10461640847927,34.340235366540981]]},"properties":{"FID":211,"OBJECTID":212,"道路类":"支路","length":260,"Shape_Leng":260.43757778999998}},{"type":"Feature","id":212,"geometry":{"type":"LineString","coordinates":[[108.09898678229395,34.341261410127274],[108.10403386688749,34.342554456272552]]},"properties":{"FID":212,"OBJECTID":213,"道路类":"支路","length":486,"Shape_Leng":486.04450934900001}},{"type":"Feature","id":213,"geometry":{"type":"LineString","coordinates":[[108.10945725707084,34.325812251134799],[108.11278178716637,34.325854718141635]]},"properties":{"FID":213,"OBJECTID":214,"道路类":"支路","length":306,"Shape_Leng":305.99499837899998}},{"type":"Feature","id":214,"geometry":{"type":"LineString","coordinates":[[108.11126160516345,34.327104789155207],[108.11128122173571,34.325835561338558]]},"properties":{"FID":214,"OBJECTID":215,"道路类":"支路","length":141,"Shape_Leng":140.80503525899999}}]}