{"type":"FeatureCollection","features":[{"type":"Feature","id":0,"geometry":{"type":"Point","coordinates":[108.10977029486327,34.340586929942894]},"properties":{"FID":0,"OBJECTID":206,"id":"B0FFGS3EWJ","name":"姜嫄水乡","address":"武功镇杨临路","photos_url":"https://aos-comment.amap.com/B0FFGS3EWJ/comment/content_media_external_file_1000019525_ss__1760105198192_94533742.jpg&https://aos-comment.amap.com/B0FFGS3EWJ/comment/9b45a361b425caad8b2e4b3dbbbc4ba7_2048_2048_80.jpg&https://aos-comment.amap.com/default_p","updatetime":"2025-12-13 04:13:50","gcj02lon":108.114678,"gcj02lat":34.339348000000001,"wgs84lon":108.109770295,"wgs84lat":34.340586930400001,"type":"风景名胜;风景名胜相关;旅游景点","typecode":"110000","大类":"风景名胜","中类":"风景名胜相关","小类":"旅游景点","文保级":" "}},{"type":"Feature","id":1,"geometry":{"type":"Point","coordinates":[108.11017176931176,34.340422284760677]},"properties":{"FID":1,"OBJECTID":207,"id":"B0FFKAXI4A","name":"姜嫄阁","address":"227县道与新区三路交叉口东180米","photos_url":"http://aos-cdn-image.amap.com/sns/ugccomment/ad9db8b6-93e8-4b45-95ed-ce1eeaa3d53e.jpg&http://aos-cdn-image.amap.com/sns/ugccomment/b5018aa6-9ca2-4b3e-9d33-6371eb687080.jpg&http://aos-cdn-image.amap.com/sns/ugccomment/02c7da01-8228-4b77-8b54-bb88395a69f6.","updatetime":"2025-09-23 18:58:00","gcj02lon":108.11507899999999,"gcj02lat":34.339182999999998,"wgs84lon":108.110171769,"wgs84lat":34.340422285300001,"type":"风景名胜;风景名胜相关;旅游景点","typecode":"110000","大类":"风景名胜","中类":"风景名胜相关","小类":"旅游景点","文保级":" "}},{"type":"Feature","id":2,"geometry":{"type":"Point","coordinates":[108.11022070142428,34.341906594213981]},"properties":{"FID":2,"OBJECTID":208,"id":"B0KUBRXAC8","name":"乡愁民俗文化体验展馆","address":"杨临路与新区三路交叉口东北260米","photos_url":"[]","updatetime":"2025-09-25 05:09:44","gcj02lon":108.115128,"gcj02lat":34.340668000000001,"wgs84lon":108.110220701,"wgs84lat":34.341906593799997,"type":"风景名胜;风景名胜相关;旅游景点","typecode":"110000","大类":"风景名胜","中类":"风景名胜相关","小类":"旅游景点","文保级":" "}},{"type":"Feature","id":3,"geometry":{"type":"Point","coordinates":[108.10919832514264,34.344525617863042]},"properties":{"FID":3,"OBJECTID":209,"id":"B0FFM3FWF3","name":"皇家尚林苑水乡花海","address":"杨临路与新区二路交叉口东北340米","photos_url":"http://store.is.autonavi.com/showpic/d797f13a1b93bab6f47731207d9eb366&http://store.is.autonavi.com/showpic/d1594cfefa9a7507740fe44b8ad8f99a&http://store.is.autonavi.com/showpic/e2e8858b068c3edb085c6ceb39798d66","updatetime":"2025-09-20 12:38:04","gcj02lon":108.114107,"gcj02lat":34.343288999999999,"wgs84lon":108.10919832499999,"wgs84lat":34.344525618299997,"type":"风景名胜;风景名胜相关;旅游景点","typecode":"110000","大类":"风景名胜","中类":"风景名胜相关","小类":"旅游景点","文保级":" "}},{"type":"Feature","id":4,"geometry":{"type":"Point","coordinates":[108.11455232113275,34.339616068626697]},"properties":{"FID":4,"OBJECTID":210,"id":"B0FFMCIVQE","name":"玉隍庙","address":"227县道与新区四路交叉口东北480米","photos_url":"[]","updatetime":"2025-09-21 18:02:16","gcj02lon":108.119454,"gcj02lat":34.338372999999997,"wgs84lon":108.11455232100001,"wgs84lat":34.3396160693,"type":"风景名胜;风景名胜;寺庙道观","typecode":"110205","大类":"风景名胜","中类":"风景名胜","小类":"寺庙道观","文保级":" "}},{"type":"Feature","id":5,"geometry":{"type":"Point","coordinates":[108.11334854889645,34.341781010185514]},"properties":{"FID":5,"OBJECTID":211,"id":"B0KA45C0O2","name":"二水村遗址","address":"517省道与新区三路交叉口东500米","photos_url":"http://store.is.autonavi.com/showpic/b9ce113f02211b8d5d10d42075793017","updatetime":"2025-09-22 14:07:53","gcj02lon":108.118252,"gcj02lat":34.340539999999997,"wgs84lon":108.11334854899999,"wgs84lat":34.341781009499996,"type":"风景名胜;风景名胜;风景名胜","typecode":"110200","大类":"风景名胜","中类":"风景名胜","小类":"风景名胜","文保级":" 县级"}},{"type":"Feature","id":6,"geometry":{"type":"Point","coordinates":[108.11308360862171,34.336947147892595]},"properties":{"FID":6,"OBJECTID":212,"id":"B0FFJPPWZL","name":"漆水河湿地公园","address":"仁义大道北","photos_url":"http://aos-cdn-image.amap.com/sns/ugccomment/5fbe5f05-ad57-47db-9da4-9c72e4ac6b20.jpg&http://aos-cdn-image.amap.com/sns/ugccomment/37ef7f8d-41ad-4553-8be1-c49e79b74378.jpg&http://aos-cdn-image.amap.com/sns/ugccomment/84ccc5df-5c4f-4a7a-9bf9-e1a1eafe18ee.","updatetime":"2025-12-12 11:17:32","gcj02lon":108.117987,"gcj02lat":34.335704,"wgs84lon":108.113083609,"wgs84lat":34.3369471476,"type":"风景名胜;风景名胜;风景名胜","typecode":"110200","大类":"风景名胜","中类":"风景名胜","小类":"风景名胜","文保级":" "}},{"type":"Feature","id":7,"geometry":{"type":"Point","coordinates":[108.0985443914106,34.342528907982796]},"properties":{"FID":7,"OBJECTID":213,"id":"B038E011C0","name":"苏武墓","address":"武功镇龙门村苏武陵园","photos_url":"https://store.is.autonavi.com/showpic/e0bf0732fb7b62b5c4eb9fb481aef4d1&https://store.is.autonavi.com/showpic/6cf00b649518fbc48e9cafd619250ed2&https://store.is.autonavi.com/showpic/8e006a70ef3cfcc0af5aa0f992578420","updatetime":"2025-12-13 01:40:53","gcj02lon":108.10346199999999,"gcj02lat":34.341296,"wgs84lon":108.098544391,"wgs84lat":34.3425289081,"type":"风景名胜;风景名胜相关;旅游景点","typecode":"110000","大类":"风景名胜","中类":"风景名胜相关","小类":"旅游景点","文保级":"省级"}},{"type":"Feature","id":8,"geometry":{"type":"Point","coordinates":[108.10035147474082,34.343320985874861]},"properties":{"FID":8,"OBJECTID":214,"id":"B0FFG9AXC1","name":"苏武纪念馆","address":"武功镇北","photos_url":"http://store.is.autonavi.com/showpic/26d1bfc94f059abd0b82fd6e7d4b9d5c&http://store.is.autonavi.com/showpic/af2f71190268bbd0adf737e44c571d2b&http://store.is.autonavi.com/showpic/027cfaed122bc9f7f1000423a2e711bb","updatetime":"2025-12-06 07:54:05","gcj02lon":108.105268,"gcj02lat":34.342087999999997,"wgs84lon":108.100351475,"wgs84lat":34.3433209859,"type":"风景名胜;风景名胜;纪念馆","typecode":"110204","大类":"风景名胜","中类":"风景名胜","小类":"纪念馆","文保级":" "}},{"type":"Feature","id":9,"geometry":{"type":"Point","coordinates":[108.10389824440853,34.330892311131322]},"properties":{"FID":9,"OBJECTID":215,"id":"B0JKJ5LFPR","name":"圣母庙","address":"武功镇稷山上阁寺内","photos_url":"https://aos-comment.amap.com/B0JKJ5LFPR/headerImg/edf59b700d2febd8e314da43e1e52238_2048_2048_80.jpg","updatetime":"2025-09-22 12:12:19","gcj02lon":108.108811,"gcj02lat":34.329652000000003,"wgs84lon":108.10389824400001,"wgs84lat":34.330892311299998,"type":"风景名胜;风景名胜;风景名胜","typecode":"110200","大类":"风景名胜","中类":"风景名胜","小类":"风景名胜","文保级":" "}},{"type":"Feature","id":10,"geometry":{"type":"Point","coordinates":[108.10364382979895,34.333264067083064]},"properties":{"FID":10,"OBJECTID":217,"id":"B0HRFZ19PI","name":"太白庙","address":"武功镇香山顶太白城旁","photos_url":"http://store.is.autonavi.com/showpic/d489e84fa02258c0de5bcdb5d8e223b5","updatetime":"2025-09-22 21:38:02","gcj02lon":108.108557,"gcj02lat":34.332025000000002,"wgs84lon":108.10364383,"wgs84lat":34.333264067000002,"type":"风景名胜;风景名胜;回教寺","typecode":"110207","大类":"风景名胜","中类":"风景名胜","小类":"回教寺","文保级":" "}},{"type":"Feature","id":11,"geometry":{"type":"Point","coordinates":[108.10374794790954,34.332898286726618]},"properties":{"FID":11,"OBJECTID":218,"id":"B0FFGZTLPX","name":"清凉寺","address":"武功镇康家山","photos_url":"http://store.is.autonavi.com/showpic/cb0778853a712d3965affb6b59cc2ff8&http://aos-cdn-image.amap.com/sns/ugccomment/5fb4db2c-c748-4a19-a560-d99878efc5a1.jpg&http://aos-cdn-image.amap.com/sns/ugccomment/ee124ceb-cf0d-4eec-bf7a-9ec8b37c02cf.jpg","updatetime":"2025-09-24 16:01:37","gcj02lon":108.108661,"gcj02lat":34.331659000000002,"wgs84lon":108.10374794800001,"wgs84lat":34.332898287399999,"type":"风景名胜;风景名胜;寺庙道观","typecode":"110205","大类":"风景名胜","中类":"风景名胜","小类":"寺庙道观","文保级":" "}},{"type":"Feature","id":12,"geometry":{"type":"Point","coordinates":[108.10483384690457,34.333536479824716]},"properties":{"FID":12,"OBJECTID":222,"id":"B0FFIPW25Q","name":"睡佛殿","address":"新区四路与宣化路交叉口西南220米","photos_url":"http://store.is.autonavi.com/showpic/05930c8fd33715bf9810dc2da4e3f797","updatetime":"2025-09-22 10:54:46","gcj02lon":108.109746,"gcj02lat":34.332296999999997,"wgs84lon":108.10483384699999,"wgs84lat":34.333536480299998,"type":"风景名胜;风景名胜;风景名胜","typecode":"110200","大类":"风景名胜","中类":"风景名胜","小类":"风景名胜","文保级":" "}},{"type":"Feature","id":13,"geometry":{"type":"Point","coordinates":[108.10332644555905,34.334682251184972]},"properties":{"FID":13,"OBJECTID":223,"id":"B0JKJSFSM5","name":"香山寺","address":"新区四路西段武功镇人民政府附近","photos_url":"https://store.is.autonavi.com/showpic/8fa4068448200edb19251a15905a6dda&http://store.is.autonavi.com/showpic/6bc74e8dd4d1ef8f5a13aa3e8e940fdf&https://store.is.autonavi.com/showpic/3c125c45f1f62381e8dfbc29223bb9b6","updatetime":"2025-09-21 06:50:02","gcj02lon":108.10824,"gcj02lat":34.333444,"wgs84lon":108.103326446,"wgs84lat":34.334682250999997,"type":"风景名胜;风景名胜;寺庙道观","typecode":"110205","大类":"风景名胜","中类":"风景名胜","小类":"寺庙道观","文保级":" "}},{"type":"Feature","id":14,"geometry":{"type":"Point","coordinates":[108.10575168599155,34.333653882720576]},"properties":{"FID":14,"OBJECTID":224,"id":"B038E0OO9M","name":"报本寺塔","address":"镇徐路附近","photos_url":"http://store.is.autonavi.com/showpic/e15a1ba066ab4f9028864aefd869b87f&http://store.is.autonavi.com/showpic/1d982176d0b6f18decd588033ef07ad9&http://store.is.autonavi.com/showpic/a5b119c9e7395dc1298c82d9ddce8c5b","updatetime":"2025-12-12 11:31:07","gcj02lon":108.110663,"gcj02lat":34.332414,"wgs84lon":108.105751686,"wgs84lat":34.333653882599997,"type":"风景名胜;风景名胜;寺庙道观","typecode":"110205","大类":"风景名胜","中类":"风景名胜","小类":"寺庙道观","文保级":" 国家级"}},{"type":"Feature","id":15,"geometry":{"type":"Point","coordinates":[108.1041706130834,34.329294193372391]},"properties":{"FID":15,"OBJECTID":225,"id":"B0FFKCI54H","name":"玉皇堂","address":"积山村","photos_url":"[]","updatetime":"2025-09-24 01:00:06","gcj02lon":108.109083,"gcj02lat":34.328052999999997,"wgs84lon":108.10417061299999,"wgs84lat":34.329294193000003,"type":"风景名胜;风景名胜相关;旅游景点","typecode":"110000","大类":"风景名胜","中类":"风景名胜相关","小类":"旅游景点","文保级":" "}},{"type":"Feature","id":16,"geometry":{"type":"Point","coordinates":[108.10840669421361,34.329739266054332]},"properties":{"FID":16,"OBJECTID":226,"id":"B0I34SF9MT","name":"财神楼","address":"马道巷西口","photos_url":"https://store.is.autonavi.com/showpic/4e0002fc600e4f0eda491d8a411811bb","updatetime":"2025-09-19 08:14:08","gcj02lon":108.113315,"gcj02lat":34.328496000000001,"wgs84lon":108.108406694,"wgs84lat":34.329739266399997,"type":"风景名胜;风景名胜相关;旅游景点","typecode":"110000","大类":"风景名胜","中类":"风景名胜相关","小类":"旅游景点","文保级":" "}},{"type":"Feature","id":17,"geometry":{"type":"Point","coordinates":[108.11049664220633,34.3344653958614]},"properties":{"FID":17,"OBJECTID":227,"id":"B0JADSEGIG","name":"盛世阁","address":"武功镇后稷广场","photos_url":"https://aos-comment.amap.com/B0JADSEGIG/headerImg/c49ef07abd00fabc426a1e13eb531f8b_2048_2048_80.jpg","updatetime":"2025-09-24 11:12:07","gcj02lon":108.115403,"gcj02lat":34.333222999999997,"wgs84lon":108.110496642,"wgs84lat":34.334465396200002,"type":"风景名胜;风景名胜相关;旅游景点","typecode":"110000","大类":"风景名胜","中类":"风景名胜相关","小类":"旅游景点","文保级":" "}},{"type":"Feature","id":18,"geometry":{"type":"Point","coordinates":[108.11055294426302,34.331633792265734]},"properties":{"FID":18,"OBJECTID":228,"id":"B0FFJBI2AF","name":"城隍庙","address":"东街都城隍府(东南角)","photos_url":"http://aos-cdn-image.amap.com/sns/ugccomment/00f96a35-e333-4a35-a979-b441f61d1267.jpg&http://store.is.autonavi.com/showpic/15572cd1b22f47db80aaff5cabd6d035&http://aos-cdn-image.amap.com/sns/ugccomment/99a7c268-e7ae-4501-ac02-d6884304eebf.jpg","updatetime":"2025-12-13 02:00:18","gcj02lon":108.115459,"gcj02lat":34.330390000000001,"wgs84lon":108.11055294400001,"wgs84lat":34.3316337917,"type":"风景名胜;风景名胜;寺庙道观","typecode":"110205","大类":"风景名胜","中类":"风景名胜","小类":"寺庙道观","文保级":" 国家级"}},{"type":"Feature","id":19,"geometry":{"type":"Point","coordinates":[108.1108159959615,34.334727496976484]},"properties":{"FID":19,"OBJECTID":229,"id":"B0FFJM3KAX","name":"后稷文化广场","address":"227县道旁","photos_url":"http://store.is.autonavi.com/showpic/df38ffdfd6389de0713e52b51c9804a0&http://store.is.autonavi.com/showpic/6b724c645c6fda485ea5af3d79a5f2b1&http://store.is.autonavi.com/showpic/e88227e253e9accc7d467293eedeb75c","updatetime":"2025-09-27 17:13:11","gcj02lon":108.11572200000001,"gcj02lat":34.333485000000003,"wgs84lon":108.110815996,"wgs84lat":34.334727497000003,"type":"风景名胜;公园广场;城市广场","typecode":"110105","大类":"风景名胜","中类":"公园广场","小类":"城市广场","文保级":" "}},{"type":"Feature","id":20,"geometry":{"type":"Point","coordinates":[108.11489643682114,34.331809128588475]},"properties":{"FID":20,"OBJECTID":230,"id":"B0JUTPY7P6","name":"美阳里","address":"东街227县","photos_url":"http://store.is.autonavi.com/showpic/9ada11074fd97a85ad3d2e3459f0891d&https://store.is.autonavi.com/showpic/e09bba1a19d63e4308e67e7ae5801500&http://store.is.autonavi.com/showpic/ed54be652bbbdc085377dfdc1aa30774","updatetime":"2025-11-12 17:29:17","gcj02lon":108.11979700000001,"gcj02lat":34.330562,"wgs84lon":108.114896437,"wgs84lat":34.331809129,"type":"风景名胜;风景名胜;风景名胜","typecode":"110200","大类":"风景名胜","中类":"风景名胜","小类":"风景名胜","文保级":" "}},{"type":"Feature","id":21,"geometry":{"type":"Point","coordinates":[108.11307213686968,34.330431262892539]},"properties":{"FID":21,"OBJECTID":235,"id":"B038E02I07","name":"教稼圣地","address":"227县道与东街交叉口东南80米","photos_url":"https://aos-comment.amap.com/B038E02I07/comment/bcd36125bb6da328ad7516c3876f3e01_2048_2048_80.jpg&https://aos-comment.amap.com/B038E02I07/comment/cf33d0c3017c55438d4febb7d624ecad_2048_2048_80.jpg&https://aos-comment.amap.com/B038E02I07/comment/b0a63c0a18","updatetime":"2025-12-12 11:24:44","gcj02lon":108.117975,"gcj02lat":34.329185000000003,"wgs84lon":108.113072137,"wgs84lat":34.330431263400001,"type":"风景名胜;风景名胜相关;旅游景点","typecode":"110000","大类":"风景名胜","中类":"风景名胜相关","小类":"旅游景点","文保级":" 省级"}},{"type":"Feature","id":22,"geometry":{"type":"Point","coordinates":[108.11267347460125,34.332275068239888]},"properties":{"FID":22,"OBJECTID":236,"id":"B0FFGZTOFK","name":"武功古镇","address":"武功镇","photos_url":"https://aos-comment.amap.com/B0FFGZTOFK/headerImg/2c85e412e6936b88c9e656c67c3fce60_2048_2048_80.jpg&https://aos-comment.amap.com/B0FFGZTOFK/comment/content_media_external_images_media_9418_1744372261370_11251093.jpg&https://aos-comment.amap.com/B0FFGZTOF","updatetime":"2025-12-13 02:28:40","gcj02lon":108.117577,"gcj02lat":34.331029999999998,"wgs84lon":108.11267347499999,"wgs84lat":34.332275068000001,"type":"风景名胜;风景名胜相关;旅游景点","typecode":"110000","大类":"风景名胜","中类":"风景名胜相关","小类":"旅游景点","文保级":" "}},{"type":"Feature","id":23,"geometry":{"type":"Point","coordinates":[108.11321016122002,34.332272496178803]},"properties":{"FID":23,"OBJECTID":237,"id":"B0KUPDBL84","name":"美阳关美阳城","address":"东街227县美阳里内(西侧)","photos_url":"[]","updatetime":"2025-09-22 04:20:03","gcj02lon":108.11811299999999,"gcj02lat":34.331026999999999,"wgs84lon":108.113210161,"wgs84lat":34.332272496500003,"type":"风景名胜;风景名胜相关;旅游景点","typecode":"110000","大类":"风景名胜","中类":"风景名胜相关","小类":"旅游景点","文保级":" "}},{"type":"Feature","id":24,"geometry":{"type":"Point","coordinates":[108.11677784372256,34.334615480120362]},"properties":{"FID":24,"OBJECTID":238,"id":"B0FFM5SC64","name":"漆沮湖·立心岛","address":"漆沮湖内","photos_url":"[]","updatetime":"2025-09-18 05:51:14","gcj02lon":108.12167599999999,"gcj02lat":34.333368,"wgs84lon":108.116777844,"wgs84lat":34.334615480399997,"type":"风景名胜;风景名胜相关;旅游景点","typecode":"110000","大类":"风景名胜","中类":"风景名胜相关","小类":"旅游景点","文保级":" "}},{"type":"Feature","id":25,"geometry":{"type":"Point","coordinates":[108.11591762689704,34.334510739678933]},"properties":{"FID":25,"OBJECTID":239,"id":"B0FFJOO1QE","name":"漆沮湖","address":"武功镇东桥北漆水河湿地公园内(东南角)","photos_url":"http://aos-cdn-image.amap.com/sns/ugccomment/ee82b69d-3e8a-4439-bb00-c0b6b0afa24b.jpg&http://aos-cdn-image.amap.com/sns/ugccomment/4197f13a-8277-4a0e-b75d-fb2d0e86595d.jpg&http://aos-cdn-image.amap.com/sns/ugccomment/22a50214-2023-4064-b3dc-e91820600d09.","updatetime":"2025-09-25 22:31:18","gcj02lon":108.120817,"gcj02lat":34.333264,"wgs84lon":108.115917627,"wgs84lat":34.334510739800002,"type":"风景名胜;风景名胜;风景名胜","typecode":"110200","大类":"风景名胜","中类":"风景名胜","小类":"风景名胜","文保级":" "}},{"type":"Feature","id":26,"geometry":{"type":"Point","coordinates":[108.11243228362304,34.330915528029259]},"properties":{"FID":26,"OBJECTID":240,"id":"B0FFMBP1YS","name":"观澜门","address":"武功镇东街东口","photos_url":"[]","updatetime":"2025-09-22 05:47:50","gcj02lon":108.11733599999999,"gcj02lat":34.32967,"wgs84lon":108.11243228399999,"wgs84lat":34.3309155281,"type":"风景名胜;风景名胜相关;旅游景点","typecode":"110000","大类":"风景名胜","中类":"风景名胜相关","小类":"旅游景点","文保级":" "}},{"type":"Feature","id":27,"geometry":{"type":"Point","coordinates":[108.10994654939378,34.327947121362627]},"properties":{"FID":27,"OBJECTID":241,"id":"B0KBR7SDMX","name":"菩萨庙","address":"南关正街与老西宝北线交叉口东北220米","photos_url":"http://store.is.autonavi.com/showpic/3114079355351d7a4b7b2a396736b0d3","updatetime":"2025-09-22 13:14:22","gcj02lon":108.114853,"gcj02lat":34.326701999999997,"wgs84lon":108.109946549,"wgs84lat":34.327947121299999,"type":"风景名胜;风景名胜;寺庙道观","typecode":"110205","大类":"风景名胜","中类":"风景名胜","小类":"寺庙道观","文保级":" "}},{"type":"Feature","id":28,"geometry":{"type":"Point","coordinates":[108.11176310977976,34.335047038689936]},"properties":{"FID":28,"OBJECTID":242,"id":"B0K0HAKF9L","name":"武功河滩古会遗址","address":"517省道与新区四路交叉口东南160米","photos_url":"https://aos-comment.amap.com/B0K0HAKF9L/comment/content_media_external_images_media_1000014122_ss__1739096180639_76616854.jpg&https://aos-comment.amap.com/B0K0HAKF9L/comment/ED2A3D4F_8A4D_42D4_B935_547B04FCDC9D_L0_001_1134_2016_1736383765646_58870805.jpg","updatetime":"2025-10-15 18:10:55","gcj02lon":108.116668,"gcj02lat":34.333804000000001,"wgs84lon":108.11176311,"wgs84lat":34.335047038600003,"type":"风景名胜;风景名胜;风景名胜","typecode":"110200","大类":"风景名胜","中类":"风景名胜","小类":"风景名胜","文保级":" "}},{"type":"Feature","id":29,"geometry":{"type":"Point","coordinates":[108.11197036663918,34.33501820912312]},"properties":{"FID":29,"OBJECTID":243,"id":"B0L6AMT7UV","name":"弘荣广场","address":"517省道与新区四路交叉口东南160米","photos_url":"[]","updatetime":"2025-09-24 21:12:47","gcj02lon":108.11687499999999,"gcj02lat":34.333775000000003,"wgs84lon":108.111970367,"wgs84lat":34.335018209099999,"type":"风景名胜;风景名胜相关;旅游景点","typecode":"110000","大类":"风景名胜","中类":"风景名胜相关","小类":"旅游景点","文保级":" "}},{"type":"Feature","id":30,"geometry":{"type":"Point","coordinates":[108.11162695961656,34.334850031403903]},"properties":{"FID":30,"OBJECTID":244,"id":"B0FFKAQJW6","name":"弘荣赓盛","address":"河滩路与227县道交叉口北100米路西","photos_url":"http://store.is.autonavi.com/showpic/86ff2bbc7a193e321436592f8800a574&http://aos-cdn-image.amap.com/sns/ugccomment/efc75986-38de-4932-9790-89d93fcfb60d.jpg","updatetime":"2025-09-25 08:05:47","gcj02lon":108.11653200000001,"gcj02lat":34.333607000000001,"wgs84lon":108.11162696,"wgs84lat":34.3348500313,"type":"风景名胜;风景名胜相关;旅游景点","typecode":"110000","大类":"风景名胜","中类":"风景名胜相关","小类":"旅游景点","文保级":" "}},{"type":"Feature","id":31,"geometry":{"type":"Point","coordinates":[108.10813865757302,34.326740518959802]},"properties":{"FID":31,"OBJECTID":246,"id":"B0FFMBP9E6","name":"集贤门","address":"武功镇南街口","photos_url":"[]","updatetime":"2025-09-21 10:17:17","gcj02lon":108.11304699999999,"gcj02lat":34.325496000000001,"wgs84lon":108.108138658,"wgs84lat":34.326740519200001,"type":"风景名胜;风景名胜相关;旅游景点","typecode":"110000","大类":"风景名胜","中类":"风景名胜相关","小类":"旅游景点","文保级":" "}},{"type":"Feature","id":32,"geometry":{"type":"Point","coordinates":[108.10403007242996,34.322320407760678]},"properties":{"FID":32,"OBJECTID":255,"id":"B0G0256FRK","name":"姜嫄圣母墓","address":"104省道与临杨路交叉口西360米","photos_url":"[]","updatetime":"2025-09-25 12:11:56","gcj02lon":108.108942,"gcj02lat":34.321075999999998,"wgs84lon":108.104030072,"wgs84lat":34.322320408000003,"type":"风景名胜;风景名胜相关;旅游景点","typecode":"110000","大类":"风景名胜","中类":"风景名胜相关","小类":"旅游景点","文保级":" 省级"}},{"type":"Feature","id":33,"geometry":{"type":"Point","coordinates":[108.1058996343607,34.323971545950144]},"properties":{"FID":33,"OBJECTID":257,"id":"B0FFIPRHMM","name":"玉皇楼","address":"104省道与临杨路交叉口西北240米","photos_url":"http://store.is.autonavi.com/showpic/e7e084dd35cdf44af1bb0efac0d3a13f&http://store.is.autonavi.com/showpic/23b953365fb5f165054b4cbbac85cc06","updatetime":"2025-09-22 08:34:11","gcj02lon":108.11081,"gcj02lat":34.322727,"wgs84lon":108.105899634,"wgs84lat":34.323971546400003,"type":"风景名胜;风景名胜相关;旅游景点","typecode":"110000","大类":"风景名胜","中类":"风景名胜相关","小类":"旅游景点","文保级":" "}},{"type":"Feature","id":34,"geometry":{"type":"Point","coordinates":[108.10570143367431,34.324107379552011]},"properties":{"FID":34,"OBJECTID":258,"id":"B0FFIPVV1U","name":"魁星楼","address":"104省道与临杨路交叉口西北260米","photos_url":"http://store.is.autonavi.com/showpic/c15167180c5d0157ff813fa55984e913","updatetime":"2025-09-21 19:58:11","gcj02lon":108.110612,"gcj02lat":34.322862999999998,"wgs84lon":108.105701434,"wgs84lat":34.324107379700003,"type":"风景名胜;风景名胜相关;旅游景点","typecode":"110000","大类":"风景名胜","中类":"风景名胜相关","小类":"旅游景点","文保级":" "}},{"type":"Feature","id":35,"geometry":{"type":"Point","coordinates":[108.10615985229543,34.32435450515635]},"properties":{"FID":35,"OBJECTID":259,"id":"B0FFIPRH3J","name":"老君殿","address":"南关正街与104省道交叉口西北260米","photos_url":"https://aos-comment.amap.com/B0FFIPRH3J/headerImg/55833c03a7e3082e952eea301dbffaaa_2048_2048_80.jpg","updatetime":"2025-09-22 18:21:45","gcj02lon":108.11107,"gcj02lat":34.32311,"wgs84lon":108.106159852,"wgs84lat":34.324354504799999,"type":"风景名胜;风景名胜相关;旅游景点","typecode":"110000","大类":"风景名胜","中类":"风景名胜相关","小类":"旅游景点","文保级":" "}},{"type":"Feature","id":36,"geometry":{"type":"Point","coordinates":[108.10705571105228,34.324657857274353]},"properties":{"FID":36,"OBJECTID":260,"id":"B0FFG8WTO3","name":"关帝庙","address":"临杨路与104省道交叉口北行150米路西","photos_url":"http://store.is.autonavi.com/showpic/e4c30b765a3d91e2caa60117565aa6e1&http://store.is.autonavi.com/showpic/99bf77472bb99c80287c9eb3cb8f112a&http://store.is.autonavi.com/showpic/1c2cd60feae95e14b9e391b2b29dc374","updatetime":"2025-09-27 12:43:36","gcj02lon":108.111965,"gcj02lat":34.323413000000002,"wgs84lon":108.107055711,"wgs84lat":34.3246578575,"type":"风景名胜;风景名胜;寺庙道观","typecode":"110205","大类":"风景名胜","中类":"风景名胜","小类":"寺庙道观","文保级":" 省级"}},{"type":"Feature","id":37,"geometry":{"type":"Point","coordinates":[108.10592364176273,34.324144478385001]},"properties":{"FID":37,"OBJECTID":261,"id":"B0FFHIQO7M","name":"小华山庙","address":"南关正街与104省道交叉口西北260米","photos_url":"http://store.is.autonavi.com/showpic/cfcb4890ea4c27014c6992623f55f608&http://store.is.autonavi.com/showpic/f16175c3cf31e1ca7602c6251f6bd9e1&http://store.is.autonavi.com/showpic/1c3ed45e637440838b333f522eebe8b7","updatetime":"2025-09-22 08:55:41","gcj02lon":108.110834,"gcj02lat":34.322899999999997,"wgs84lon":108.10592364199999,"wgs84lat":34.324144478100003,"type":"风景名胜;风景名胜;寺庙道观","typecode":"110205","大类":"风景名胜","中类":"风景名胜","小类":"寺庙道观","文保级":" 县级"}}]}